"","station","linename","place_of_interest","formatted_address","google_adress","street_number","route","postal_code","sublocality","administrative_area_level_2","administrative_area_level_1","country","lat","long","type","service","cluster"
"1","1 AV","L","1 AV subway station Line L, New York","1 Av, E 14 St, Avenue A, New York, NY 10009, USA","1 Av","None","Avenue A","10009","Manhattan","New York County","New York","United States",40.7313271,-73.9824354,"['establishment', 'point_of_interest', 'subway_station', 'transit_station']","14 St-Canarsie(L)","Lower Manhattan"
"2","103 ST","1","103 ST subway station Line 1, New York","103 St, New York, NY 10025, USA","103 St","None","None","10025","Manhattan","New York County","New York","United States",40.7962859,-73.961648,"['establishment', 'point_of_interest', 'subway_station', 'transit_station']","7 Avenue(123)","Middle Manhattan"
"3","103 ST","6","103 ST subway station Line 6, New York","103 Street Station, New York, NY 10029, USA","103 Street Station","None","None","10029","Manhattan","New York County","New York","United States",40.7902602,-73.9478665,"['establishment', 'point_of_interest', 'subway_station', 'transit_station']","Lexington Av(456)","Middle Manhattan"
"4","103 ST","BC","103 ST subway station Line BC, New York","103 St, New York, NY 10025, USA","103 St","None","None","10025","Manhattan","New York County","New York","United States",40.7962859,-73.961648,"['establishment', 'point_of_interest', 'subway_station', 'transit_station']","8 Avenue(ACE)","Middle Manhattan"
"5","103 ST-CORONA","7","103 ST-CORONA subway station Line 7, New York","103 St-Corona Plaza, Queens, NY 11368, USA","103 St-Corona Plaza","None","None","11368","Queens","Queens County","New York","United States",40.7498268,-73.862746,"['establishment', 'point_of_interest', 'subway_station', 'transit_station']","Flushing(7)","Queen"
"6","104 ST","A","104 ST subway station Line A, New York","104 St-Oxford Av Station, Queens, NY 11417, USA","104 St-Oxford Av Station","None","None","11417","Queens","Queens County","New York","United States",40.6816389,-73.837776,"['establishment', 'point_of_interest', 'subway_station', 'transit_station']","8 Avenue(ACE)","Queen"
"7","104 ST","JZ","104 ST subway station Line JZ, New York","104 Street Station, Queens, NY 11418, USA","104 Street Station","None","None","11418","Queens","Queens County","New York","United States",40.6951456,-73.8443046,"['establishment', 'point_of_interest', 'subway_station', 'transit_station']","8 Avenue(ACE)","Queen"
"8","110 ST","6","110 ST subway station Line 6, New York","110 St, New York, NY 10029, USA","110 St","None","None","10029","Manhattan","New York County","New York","United States",40.7948233,-73.9446315,"['establishment', 'point_of_interest', 'transit_station']","Lexington Av(456)","Middle Manhattan"
"9","111 ST","7","111 ST subway station Line 7, New York","111 Street Station, Queens, NY 11368, USA","111 Street Station","None","None","11368","Queens","Queens County","New York","United States",40.7516718,-73.8553273,"['establishment', 'point_of_interest', 'subway_station', 'transit_station']","Flushing(7)","Queen"
"10","111 ST","A","111 ST subway station Line A, New York","111 St, Queens, NY 11368, USA","111 St","None","None","11368","Queens","Queens County","New York","United States",40.75173,-73.855334,"['establishment', 'point_of_interest', 'transit_station']","8 Avenue(ACE)","Queen"
"11","111 ST","J","111 ST subway station Line J, New York","111 St, Queens, NY 11418, USA","111 St","None","None","11418","Queens","Queens County","New York","United States",40.6973802,-73.8363213,"['establishment', 'point_of_interest', 'subway_station', 'transit_station']","8 Avenue(ACE)","Queen"
"12","116 ST","23","116 ST subway station Line 23, New York","23 St, E 23rd St, New York, NY 10010, USA","23 St","None","East 23rd Street","10010","Manhattan","New York County","New York","United States",40.7412012,-73.9890337,"['establishment', 'point_of_interest', 'subway_station', 'transit_station']","7 Avenue(123)","Lower Manhattan"
"13","116 ST","6","116 ST subway station Line 6, New York","116 Street, New York, NY 10035, USA","116 Street","None","None","10035","Manhattan","New York County","New York","United States",40.79863,-73.94162,"['establishment', 'point_of_interest', 'subway_station', 'transit_station']","Lexington Av(456)","Middle Manhattan"
"14","116 ST","BC","116 ST subway station Line BC, New York","116 St, New York, NY 10026, USA","116 St","None","None","10026","Manhattan","New York County","New York","United States",40.8044341,-73.955359,"['establishment', 'point_of_interest', 'subway_station', 'transit_station']","8 Avenue(ACE)","Middle Manhattan"
"15","116 ST-COLUMBIA","1","116 ST-COLUMBIA subway station Line 1, New York","116 Street Station - Columbia University, New York, NY 10027, USA","116 Street Station - Columbia University","None","None","10027","Manhattan","New York County","New York","United States",40.808043,-73.9639122,"['establishment', 'point_of_interest', 'subway_station', 'transit_station']","7 Avenue(123)","Middle Manhattan"
"16","121 ST","JZ","121 ST subway station Line JZ, New York","121 St, Queens, NY 11418, USA","121 St","None","None","11418","Queens","Queens County","New York","United States",40.7003193,-73.8290986,"['establishment', 'point_of_interest', 'subway_station', 'transit_station']","8 Avenue(ACE)","Queen"
"17","125 ST","1","125 ST subway station Line 1, New York","125 St, New York, NY 10027, USA","125 St","None","None","10027","Manhattan","New York County","New York","United States",40.8107894,-73.9525928,"['establishment', 'point_of_interest', 'subway_station', 'transit_station']","7 Avenue(123)","Upper Manhattan"
"18","125 ST","23","125 ST subway station Line 23, New York","125 St, East 125th St &, Lexington Ave, New York, NY 10035, USA","125 St","None","Lexington Avenue","10035","Manhattan","New York County","New York","United States",40.8043863,-73.9374292,"['establishment', 'point_of_interest', 'subway_station', 'transit_station']","7 Avenue(123)","Upper Manhattan"
"19","125 ST","456","125 ST subway station Line 456, New York","125 St, East 125th St &, Lexington Ave, New York, NY 10035, USA","125 St","None","Lexington Avenue","10035","Manhattan","New York County","New York","United States",40.8043863,-73.9374292,"['establishment', 'point_of_interest', 'subway_station', 'transit_station']","Lexington Av(456)","Upper Manhattan"
"20","125 ST","ABCD","125 ST subway station Line ABCD, New York","125 St, New York, NY 10027, USA","125 St","None","None","10027","Manhattan","New York County","New York","United States",40.811109,-73.952343,"['establishment', 'point_of_interest', 'transit_station']","8 Avenue(ACE)","Upper Manhattan"
"21","135 ST","23","135 ST subway station Line 23, New York","135 St, New York, NY 10030, USA","135 St","None","None","10030","Manhattan","New York County","New York","United States",40.8141196,-73.9408854,"['establishment', 'point_of_interest', 'subway_station', 'transit_station']","7 Avenue(123)","Upper Manhattan"
"22","135 ST","BC","135 ST subway station Line BC, New York","135 Street, New York, NY 10030, USA","135 Street","None","None","10030","Manhattan","New York County","New York","United States",40.817894,-73.947647,"['establishment', 'point_of_interest', 'subway_station', 'transit_station']","8 Avenue(ACE)","Upper Manhattan"
"23","137 ST CITY COL","1","137 ST CITY COL subway station Line 1, New York","137 St - City College, New York, NY 10031, USA","137 St - City College","None","None","10031","Manhattan","New York County","New York","United States",40.8214063,-73.9541862,"['establishment', 'point_of_interest', 'subway_station', 'transit_station']","7 Avenue(123)","Upper Manhattan"
"24","138/GRAND CONC","45","138/GRAND CONC subway station Line 45, New York","138 St - Grand Concourse, Bronx, NY 10451, USA","138 St - Grand Concourse","None","None","10451","Bronx","Bronx County","New York","United States",40.8132249,-73.9298111,"['establishment', 'point_of_interest', 'subway_station', 'transit_station']","Lexington Av(456)","Upper Manhattan"
"25","14 ST","123FLM","14 ST subway station Line 123FLM, New York","14 St / 8 Av, 300 W 14th St, New York, NY 10014, USA","14 St / 8 Av","300","West 14th Street","10014","Manhattan","New York County","New York","United States",40.7398699,-74.0027626,"['establishment', 'point_of_interest', 'subway_station', 'transit_station']","7 Avenue(123)","Lower Manhattan"
"26","14 ST","123L","14 ST subway station Line 123L, New York","14 St / 8 Av, 300 W 14th St, New York, NY 10014, USA","14 St / 8 Av","300","West 14th Street","10014","Manhattan","New York County","New York","United States",40.7398699,-74.0027626,"['establishment', 'point_of_interest', 'subway_station', 'transit_station']","7 Avenue(123)","Lower Manhattan"
"27","14 ST","ACEL","14 ST subway station Line ACEL, New York","14 St / 8 Av, 300 W 14th St, New York, NY 10014, USA","14 St / 8 Av","300","West 14th Street","10014","Manhattan","New York County","New York","United States",40.7398699,-74.0027626,"['establishment', 'point_of_interest', 'subway_station', 'transit_station']","8 Avenue(ACE)","Lower Manhattan"
"28","14 ST-UNION SQ","456LNQRW","14 ST-UNION SQ subway station Line 456LNQRW, New York","14 St - Union Sq, New York, NY 10003, USA","14 St - Union Sq","None","None","10003","Manhattan","New York County","New York","United States",40.7345371,-73.9903235,"['establishment', 'point_of_interest', 'subway_station', 'transit_station']","Broadway(NQRW)","Lower Manhattan"
"29","145 ST","1","145 ST subway station Line 1, New York","145th St And St Nicholas Ave MTA Subway Station, New York, NY 10031, USA","145th St And St Nicholas Ave MTA Subway Station","None","None","10031","Manhattan","New York County","New York","United States",40.8240532,-73.9447623,"['establishment', 'point_of_interest', 'subway_station', 'transit_station']","7 Avenue(123)","Upper Manhattan"
"30","145 ST","3","145 ST subway station Line 3, New York","145th St And St Nicholas Ave MTA Subway Station, New York, NY 10031, USA","145th St And St Nicholas Ave MTA Subway Station","None","None","10031","Manhattan","New York County","New York","United States",40.8240532,-73.9447623,"['establishment', 'point_of_interest', 'subway_station', 'transit_station']","7 Avenue(123)","Upper Manhattan"
"31","145 ST","ABCD","145 ST subway station Line ABCD, New York","145 St, New York, NY 10031, USA","145 St","None","None","10031","Manhattan","New York County","New York","United States",40.826604,-73.9503834,"['establishment', 'point_of_interest', 'subway_station', 'transit_station']","8 Avenue(ACE)","Upper Manhattan"
"32","149/GRAND CONC","4","149/GRAND CONC subway station Line 4, New York","149 St - Grand Concourse, Bronx, NY 10451, USA","149 St - Grand Concourse","None","None","10451","Bronx","Bronx County","New York","United States",40.8183248,-73.9274121,"['establishment', 'point_of_interest', 'subway_station', 'transit_station']","Lexington Av(456)","Upper Manhattan"
"33","15 ST-PROSPECT","FG","15 ST-PROSPECT subway station Line FG, New York","15 St - Prospect Park, Brooklyn, NY 11215, USA","15 St - Prospect Park","None","None","11215","Brooklyn","Kings County","New York","United States",40.6602665,-73.9799984,"['establishment', 'point_of_interest', 'subway_station', 'transit_station']","6 Avenue(BDFM)","Brooklyn"
"34","155 ST","BD","155 ST subway station Line BD, New York","155th St, Queens, NY, USA","None","None","155th Street","None","Queens","Queens County","New York","United States",40.6811149,-73.7877785,"['route']","6 Avenue(BDFM)","Queen"
"35","155 ST","C","155 ST subway station Line C, New York","155 St, New York, NY 10032, USA","155 St","None","None","10032","Manhattan","New York County","New York","United States",40.8310964,-73.9415624,"['establishment', 'point_of_interest', 'subway_station', 'transit_station']","8 Avenue(ACE)","Upper Manhattan"
"36","157 ST","1","157 ST subway station Line 1, New York","157 Street Station, New York, NY 10032, USA","157 Street Station","None","None","10032","Manhattan","New York County","New York","United States",40.8341829,-73.9448155,"['establishment', 'point_of_interest', 'subway_station', 'transit_station']","7 Avenue(123)","Upper Manhattan"
"37","161/YANKEE STAD","4BD","161/YANKEE STAD subway station Line 4BD, New York","161 St-Yankee Stadium, E 161 St, Bronx, NY 10451, USA","161 St-Yankee Stadium","None","East 161 Street","10451","Bronx","Bronx County","New York","United States",40.8277287,-73.925522,"['establishment', 'point_of_interest', 'subway_station', 'transit_station']","6 Avenue(BDFM)","Upper Manhattan"
"38","163 ST-AMSTERDM","C","163 ST-AMSTERDM subway station Line C, New York","163 Street Subway Station, New York, NY 10032, USA","163 Street Subway Station","None","None","10032","Manhattan","New York County","New York","United States",40.8356285,-73.9398925,"['establishment', 'point_of_interest', 'subway_station', 'transit_station']","8 Avenue(ACE)","Upper Manhattan"
"39","167 ST","4","167 ST subway station Line 4, New York","167 Street, Bronx, NY 10452, USA","167 Street","None","None","10452","Bronx","Bronx County","New York","United States",40.8357232,-73.9211957,"['establishment', 'point_of_interest', 'subway_station', 'transit_station']","Lexington Av(456)","Upper Manhattan"
"40","167 ST","BD","167 ST subway station Line BD, New York","E 167th St, Bronx, NY, USA","None","None","East 167th Street","None","Bronx","Bronx County","New York","United States",40.8293015,-73.9061174,"['route']","6 Avenue(BDFM)","Upper Manhattan"
"41","168 ST","1AC","168 ST subway station Line 1AC, New York","168 St, New York, NY 10032, USA","168 St","None","None","10032","Manhattan","New York County","New York","United States",40.8408407,-73.9396297,"['establishment', 'point_of_interest', 'subway_station', 'transit_station']","8 Avenue(ACE)","Upper Manhattan"
"42","169 ST","F","169 ST subway station Line F, New York","169 St, 169th St, Queens, NY 11432, USA","169 St","None","169th Street","11432","Queens","Queens County","New York","United States",40.7107167,-73.7930062,"['establishment', 'point_of_interest', 'subway_station', 'transit_station']","6 Avenue(BDFM)","Queen"
"43","170 ST","4","170 ST subway station Line 4, New York","170 Street Station, Bronx, NY 10452, USA","170 Street Station","None","None","10452","Bronx","Bronx County","New York","United States",40.8400763,-73.9179069,"['establishment', 'point_of_interest', 'subway_station', 'transit_station']","Lexington Av(456)","Upper Manhattan"
"44","170 ST","BD","170 ST subway station Line BD, New York","E 170th St, Bronx, NY, USA","None","None","East 170th Street","None","Bronx","Bronx County","New York","United States",40.8356545,-73.9055843,"['route']","6 Avenue(BDFM)","Upper Manhattan"
"45","174-175 STS","BD","174-175 STS subway station Line BD, New York","174-175 Sts, Bronx, NY 10453, USA","174-175 Sts","None","None","10453","Bronx","Bronx County","New York","United States",40.846524,-73.9097269,"['establishment', 'point_of_interest', 'subway_station', 'transit_station']","6 Avenue(BDFM)","Upper Manhattan"
"46","174 ST","25","174 ST subway station Line 25, New York","174th Street, Bronx, NY 10460, USA","174th Street","None","None","10460","Bronx","Bronx County","New York","United States",40.8374448,-73.8878092,"['establishment', 'point_of_interest', 'subway_station', 'transit_station']","7 Avenue(123)","Bronx"
"47","175 ST","A","175 ST subway station Line A, New York","175 St, 807 W 177th St, New York, NY 10033, USA","175 St","807","West 177th Street","10033","Manhattan","New York County","New York","United States",40.8464761,-73.9399866,"['establishment', 'point_of_interest', 'subway_station', 'transit_station']","8 Avenue(ACE)","Upper Manhattan"
"48","176 ST","4","176 ST subway station Line 4, New York","176 Street, Bronx, NY 10453, USA","176 Street","None","None","10453","Bronx","Bronx County","New York","United States",40.8484577,-73.9117417,"['establishment', 'point_of_interest', 'subway_station', 'transit_station']","Lexington Av(456)","Upper Manhattan"
"49","18 AV","D","18 AV subway station Line D, New York","18 Av, Brooklyn, NY 11204, USA","18 Av","None","None","11204","Brooklyn","Kings County","New York","United States",40.6200897,-73.9895082,"['establishment', 'point_of_interest', 'subway_station', 'transit_station']","6 Avenue(BDFM)","Brooklyn"
"50","18 AV","F","18 AV subway station Line F, New York","18 Avenue, 18th Ave, Brooklyn, NY 11230, USA","18 Avenue","None","18th Avenue","11230","Brooklyn","Kings County","New York","United States",40.6296673,-73.9770029,"['establishment', 'point_of_interest', 'subway_station', 'transit_station']","6 Avenue(BDFM)","Brooklyn"
"51","18 AV","N","18 AV subway station Line N, New York","18 Av, Brooklyn, NY 11204, USA","18 Av","None","None","11204","Brooklyn","Kings County","New York","United States",40.6200897,-73.9895082,"['establishment', 'point_of_interest', 'subway_station', 'transit_station']","Broadway(NQRW)","Brooklyn"
"52","18 ST","1","18 ST subway station Line 1, New York","18 Street Station, New York, NY 10011, USA","18 Street Station","None","None","10011","Manhattan","New York County","New York","United States",40.7410695,-73.9978777,"['establishment', 'point_of_interest', 'subway_station', 'transit_station']","7 Avenue(123)","Lower Manhattan"
"53","181 ST","1","181 ST subway station Line 1, New York","181 Street Station, New York, NY 10033, USA","181 Street Station","None","None","10033","Manhattan","New York County","New York","United States",40.84913,-73.9337289,"['establishment', 'point_of_interest', 'subway_station', 'transit_station']","7 Avenue(123)",NA
"54","181 ST","A","181 ST subway station Line A, New York","181 Street Station, New York, NY 10033, USA","181 Street Station","None","None","10033","Manhattan","New York County","New York","United States",40.84913,-73.9337289,"['establishment', 'point_of_interest', 'subway_station', 'transit_station']","8 Avenue(ACE)","Upper Manhattan"
"55","182-183 STS","BD","182-183 STS subway station Line BD, New York","182-183 Sts, Bronx, NY 10453, USA","182-183 Sts","None","None","10453","Bronx","Bronx County","New York","United States",40.8560934,-73.9010295,"['establishment', 'point_of_interest', 'subway_station', 'transit_station']","6 Avenue(BDFM)","Bronx"
"56","183 ST","4","183 ST subway station Line 4, New York","183 Street Station, Bronx, NY 10453, USA","183 Street Station","None","None","10453","Bronx","Bronx County","New York","United States",40.8583762,-73.9039137,"['establishment', 'point_of_interest', 'subway_station', 'transit_station']","Lexington Av(456)","Upper Manhattan"
"57","190 ST","A","190 ST subway station Line A, New York","190 St, Bennett Ave, New York, NY 10040, USA","190 St","None","Bennett Avenue","10040","Manhattan","New York County","New York","United States",40.8588615,-73.9326591,"['establishment', 'point_of_interest', 'subway_station', 'transit_station']","8 Avenue(ACE)","Upper Manhattan"
"58","191 ST","1","191 ST subway station Line 1, New York","191 Street, 191st St Station Entrance Tunnel & Elevator, New York, NY 10040, USA","191 Street","None","191st Street Station Entrance Tunnel & Elevator","10040","Manhattan","New York County","New York","United States",40.8564197,-73.932621,"['establishment', 'point_of_interest', 'subway_station', 'transit_station']","7 Avenue(123)","Upper Manhattan"
"59","2 AV","F","2 AV subway station Line F, New York","2nd Avenue, New York, NY 10003, USA","2nd Avenue","None","None","10003","Manhattan","New York County","New York","United States",40.7239419,-73.9913057,"['establishment', 'point_of_interest', 'subway_station', 'transit_station']","6 Avenue(BDFM)","Lower Manhattan"
"60","20 AV","D","20 AV subway station Line D, New York","20 Av, Brooklyn, NY 11214, USA","20 Av","None","None","11214","Brooklyn","Kings County","New York","United States",40.6046351,-73.9984289,"['establishment', 'point_of_interest', 'subway_station', 'transit_station']","6 Avenue(BDFM)","Brooklyn"
"61","20 AV","N","20 AV subway station Line N, New York","20 Av, Brooklyn, NY 11214, USA","20 Av","None","None","11214","Brooklyn","Kings County","New York","United States",40.6046351,-73.9984289,"['establishment', 'point_of_interest', 'subway_station', 'transit_station']","Broadway(NQRW)","Brooklyn"
"62","207 ST","1","207 ST subway station Line 1, New York","207 St, New York, NY 10034, USA","207 St","None","None","10034","Manhattan","New York County","New York","United States",40.8644301,-73.9188687,"['establishment', 'point_of_interest', 'subway_station', 'transit_station']","7 Avenue(123)","Upper Manhattan"
"63","21 ST","G","21 ST subway station Line G, New York","21 Street-Van Alst Station, Queens, NY 11101, USA","21 Street-Van Alst Station","None","None","11101","Queens","Queens County","New York","United States",40.7446224,-73.9486362,"['establishment', 'point_of_interest', 'subway_station', 'transit_station']","Brooklyn-Queens Crosstown(G)","Middle Manhattan"
"64","21 ST-QNSBRIDGE","F","21 ST-QNSBRIDGE subway station Line F, New York","21 St-Queensbridge Sta, Queens, NY 11101, USA","21 St-Queensbridge Sta","None","None","11101","Queens","Queens County","New York","United States",40.7541288,-73.9423432,"['establishment', 'point_of_interest', 'subway_station', 'transit_station']","6 Avenue(BDFM)","Middle Manhattan"
"65","215 ST","1","215 ST subway station Line 1, New York","215 Street Station, New York, NY 10034, USA","215 Street Station","None","None","10034","Manhattan","New York County","New York","United States",40.8695946,-73.9153019,"['establishment', 'point_of_interest', 'subway_station', 'transit_station']","7 Avenue(123)","Upper Manhattan"
"66","219 ST","25","219 ST subway station Line 25, New York","219 St, Bronx, NY 10467, USA","219 St","None","None","10467","Bronx","Bronx County","New York","United States",40.883888,-73.8627468,"['establishment', 'point_of_interest', 'subway_station', 'transit_station']","7 Avenue(123)","Bronx"
"67","225 ST","25","225 ST subway station Line 25, New York","225 St, Bronx, NY 10466, USA","225 St","None","None","10466","Bronx","Bronx County","New York","United States",40.888092,-73.8604244,"['establishment', 'point_of_interest', 'subway_station', 'transit_station']","7 Avenue(123)","Bronx"
"68","23 ST","1","23 ST subway station Line 1, New York","23 St, New York, NY 10010, USA","23 St","None","None","10010","Manhattan","New York County","New York","United States",40.7400595,-73.9864645,"['establishment', 'point_of_interest', 'subway_station', 'transit_station']","7 Avenue(123)","Lower Manhattan"
"69","23 ST","6","23 ST subway station Line 6, New York","23 St, New York, NY 10010, USA","23 St","None","None","10010","Manhattan","New York County","New York","United States",40.7400595,-73.9864645,"['establishment', 'point_of_interest', 'subway_station', 'transit_station']","Lexington Av(456)","Lower Manhattan"
"70","23 ST","CE","23 ST subway station Line CE, New York","23 St, E 23rd St, New York, NY 10010, USA","23 St","None","East 23rd Street","10010","Manhattan","New York County","New York","United States",40.7412012,-73.9890337,"['establishment', 'point_of_interest', 'subway_station', 'transit_station']","8 Avenue(ACE)","Lower Manhattan"
"71","23 ST","FM","23 ST subway station Line FM, New York","23 St, E 23rd St, New York, NY 10010, USA","23 St","None","East 23rd Street","10010","Manhattan","New York County","New York","United States",40.7412012,-73.9890337,"['establishment', 'point_of_interest', 'subway_station', 'transit_station']","6 Avenue(BDFM)","Lower Manhattan"
"72","23 ST","NRW","23 ST subway station Line NRW, New York","23 St, E 23rd St, New York, NY 10010, USA","23 St","None","East 23rd Street","10010","Manhattan","New York County","New York","United States",40.7412012,-73.9890337,"['establishment', 'point_of_interest', 'subway_station', 'transit_station']","Broadway(NQRW)","Lower Manhattan"
"73","231 ST","1","231 ST subway station Line 1, New York","231 St, Bronx, NY 10463, USA","231 St","None","None","10463","Bronx","Bronx County","New York","United States",40.879025,-73.9049309,"['establishment', 'point_of_interest', 'subway_station', 'transit_station']","7 Avenue(123)","Bronx"
"74","233 ST","25","233 ST subway station Line 25, New York","233 St, Bronx, NY 10466, USA","233 St","None","None","10466","Bronx","Bronx County","New York","United States",40.8932229,-73.8574091,"['establishment', 'point_of_interest', 'subway_station', 'transit_station']","7 Avenue(123)","Bronx"
"75","238 ST","1","238 ST subway station Line 1, New York","238th Street Station, Bronx, NY 10463, USA","238th Street Station","None","None","10463","Bronx","Bronx County","New York","United States",40.8848725,-73.9006842,"['establishment', 'point_of_interest', 'subway_station', 'transit_station']","7 Avenue(123)","Bronx"
"76","25 AV","D","25 AV subway station Line D, New York","25 Av, Brooklyn, NY 11214, USA","25 Av","None","None","11214","Brooklyn","Kings County","New York","United States",40.5975792,-73.9867288,"['establishment', 'point_of_interest', 'subway_station', 'transit_station']","6 Avenue(BDFM)","Brooklyn"
"77","25 ST","R","25 ST subway station Line R, New York","25 St, 25th St, Brooklyn, NY 11232, USA","25 St","None","25th Street","11232","Brooklyn","Kings County","New York","United States",40.6604825,-73.9982318,"['establishment', 'point_of_interest', 'subway_station', 'transit_station']","Broadway(NQRW)","Brooklyn"
"78","28 ST","1","28 ST subway station Line 1, New York","28 St, New York, NY 10001, USA","28 St","None","None","10001","Manhattan","New York County","New York","United States",40.7470686,-73.9935092,"['establishment', 'point_of_interest', 'subway_station', 'transit_station']","7 Avenue(123)","Lower Manhattan"
"79","28 ST","6","28 ST subway station Line 6, New York","28 St Station, New York, NY 10016, USA","28 St Station","None","None","10016","Manhattan","New York County","New York","United States",40.743308,-73.9844249,"['establishment', 'point_of_interest', 'subway_station', 'transit_station']","Lexington Av(456)","Lower Manhattan"
"80","28 ST","NRW","28 ST subway station Line NRW, New York","28 St, New York, NY 10001, USA","28 St","None","None","10001","Manhattan","New York County","New York","United States",40.7470686,-73.9935092,"['establishment', 'point_of_interest', 'subway_station', 'transit_station']","Broadway(NQRW)","Lower Manhattan"
"81","3 AV","L","3 AV subway station Line L, New York","3 Av, New York, NY 10003, USA","3 Av","None","None","10003","Manhattan","New York County","New York","United States",40.7331614,-73.9870183,"['establishment', 'point_of_interest', 'subway_station', 'transit_station']","14 St-Canarsie(L)","Lower Manhattan"
"82","3 AV-149 ST","25","3 AV-149 ST subway station Line 25, New York","3 Av - 149 St, Bronx, NY 10455, USA","3 Av - 149 St","None","None","10455","Bronx","Bronx County","New York","United States",40.8160451,-73.9179347,"['establishment', 'point_of_interest', 'subway_station', 'transit_station']","7 Avenue(123)","Upper Manhattan"
"83","3 AV 138 ST","6","3 AV 138 ST subway station Line 6, New York","3 Avenue-138 Street Station, Bronx, NY 10454, USA","3 Avenue-138 Street Station","None","None","10454","Bronx","Bronx County","New York","United States",40.810474,-73.92614,"['establishment', 'point_of_interest', 'subway_station', 'transit_station']","Lexington Av(456)","Upper Manhattan"
"84","30 AV","NW","30 AV subway station Line NW, New York","30 Av, 30th Ave, Queens, NY 11102, USA","30 Av","None","30th Avenue","11102","Queens","Queens County","New York","United States",40.7668562,-73.921323,"['establishment', 'point_of_interest', 'subway_station', 'transit_station']","Broadway(NQRW)","Middle Manhattan"
"85","33 ST","6","33 ST subway station Line 6, New York","33 St, 2 Park Ave, New York, NY 10016, USA","33 St","2","Park Avenue","10016","Manhattan","New York County","New York","United States",40.7461711,-73.9819916,"['establishment', 'point_of_interest', 'subway_station', 'transit_station']","Lexington Av(456)","Lower Manhattan"
"86","33 ST-RAWSON ST","7","33 ST-RAWSON ST subway station Line 7, New York","33 St - Rawson St, Queens, NY 11101, USA","33 St - Rawson St","None","None","11101","Queens","Queens County","New York","United States",40.7445586,-73.9312333,"['establishment', 'point_of_interest', 'subway_station', 'transit_station']","Flushing(7)","Middle Manhattan"
"87","34 ST-HERALD SQ","BDFMNQRW","34 ST-HERALD SQ subway station Line BDFMNQRW, New York","34 St - Herald Sq Subway Station, New York, NY 10001, USA","34 St - Herald Sq Subway Station","None","None","10001","Manhattan","New York County","New York","United States",40.7500869,-73.988127,"['establishment', 'point_of_interest', 'subway_station', 'transit_station']","6 Avenue(BDFM)","Lower Manhattan"
"88","34 ST-HUDSON YD","7","34 ST-HUDSON YD subway station Line 7, New York","34 Street-Hudson Yards Subway Station, 380-394 11th Ave, New York, NY 10001, USA","34 Street-Hudson Yards Subway Station","380-394","11th Avenue","10001","Manhattan","New York County","New York","United States",40.7549713,-74.0010084,"['establishment', 'point_of_interest', 'subway_station', 'transit_station']","Flushing(7)","Lower Manhattan"
"89","34 ST-PENN STA","123","34 ST-PENN STA subway station Line 123, New York","34 St - Herald Sq Subway Station, New York, NY 10001, USA","34 St - Herald Sq Subway Station","None","None","10001","Manhattan","New York County","New York","United States",40.7500869,-73.988127,"['establishment', 'point_of_interest', 'subway_station', 'transit_station']","7 Avenue(123)","Lower Manhattan"
"90","34 ST-PENN STA","ACE","34 ST-PENN STA subway station Line ACE, New York","34 St - Penn Station, New York, NY, USA","34 St - Penn Station","None","None","None","Manhattan","New York County","New York","United States",40.7519921,-73.993323,"['establishment', 'point_of_interest', 'transit_station']","8 Avenue(ACE)","Lower Manhattan"
"91","36 AV","NW","36 AV subway station Line NW, New York","36 Av, 36th Ave, Queens, NY 11106, USA","36 Av","None","36th Avenue","11106","Queens","Queens County","New York","United States",40.7566048,-73.9296685,"['establishment', 'point_of_interest', 'subway_station', 'transit_station']","Broadway(NQRW)","Middle Manhattan"
"92","36 ST","DNR","36 ST subway station Line DNR, New York","36 St, Brooklyn, NY 10012, USA","36 St","None","None","10012","Brooklyn","Kings County","New York","United States",40.6545065,-74.0042335,"['establishment', 'point_of_interest', 'subway_station', 'transit_station']","Broadway(NQRW)","Brooklyn"
"93","36 ST","MR","36 ST subway station Line MR, New York","36 St, Brooklyn, NY 10012, USA","36 St","None","None","10012","Brooklyn","Kings County","New York","United States",40.6545065,-74.0042335,"['establishment', 'point_of_interest', 'subway_station', 'transit_station']","6 Avenue(BDFM)","Brooklyn"
"94","39 AV","NW","39 AV subway station Line NW, New York","39 Av-Dutch Kills Sta, 39th Ave, Queens, NY 11101, USA","39 Av-Dutch Kills Sta","None","39th Avenue","11101","Queens","Queens County","New York","United States",40.7526897,-73.9328056,"['establishment', 'point_of_interest', 'subway_station', 'transit_station']","Broadway(NQRW)","Middle Manhattan"
"95","4 AV-9 ST","DFGMNR","4 AV-9 ST subway station Line DFGMNR, New York","4 Av, Brooklyn, NY 11215, USA","4 Av","None","None","11215","Brooklyn","Kings County","New York","United States",40.6701431,-73.989334,"['establishment', 'point_of_interest', 'subway_station', 'transit_station']","6 Avenue(BDFM)","Brooklyn"
"96","40 ST LOWERY ST","7","40 ST LOWERY ST subway station Line 7, New York","40 Street - Lowery St, Queens, NY 11104, USA","40 Street - Lowery St","None","None","11104","Queens","Queens County","New York","United States",40.7438729,-73.9242341,"['establishment', 'point_of_interest', 'subway_station', 'transit_station']","Flushing(7)","Middle Manhattan"
"97","42 ST-BRYANT PK","BDFM","42 ST-BRYANT PK subway station Line BDFM, New York","42 St-Bryant Park Station, New York, NY 10018, USA","42 St-Bryant Park Station","None","None","10018","Manhattan","New York County","New York","United States",40.7548368,-73.9841215,"['establishment', 'point_of_interest', 'subway_station', 'transit_station']","6 Avenue(BDFM)","Middle Manhattan"
"98","42 ST-PORT AUTH","ACE","42 ST-PORT AUTH subway station Line ACE, New York","42 St - Port Authority Bus Terminal, 625 8th Ave, New York, NY 10018, USA","42 St - Port Authority Bus Terminal","625","8th Avenue","10018","Manhattan","New York County","New York","United States",40.7567565,-73.9904366,"['establishment', 'point_of_interest', 'subway_station', 'transit_station']","8 Avenue(ACE)","Middle Manhattan"
"99","45 ST","R","45 ST subway station Line R, New York","45 St, 45th St, Brooklyn, NY 11220, USA","45 St","None","45th Street","11220","Brooklyn","Kings County","New York","United States",40.6493612,-74.0095916,"['establishment', 'point_of_interest', 'subway_station', 'transit_station']","Broadway(NQRW)","Brooklyn"
"100","46 ST","MR","46 ST subway station Line MR, New York","46 Street Station, Queens, NY 11103, USA","46 Street Station","None","None","11103","Queens","Queens County","New York","United States",40.7567515,-73.9142118,"['establishment', 'point_of_interest', 'subway_station', 'transit_station']","6 Avenue(BDFM)","Middle Manhattan"
"101","46 ST BLISS ST","7","46 ST BLISS ST subway station Line 7, New York","46 St-Bliss St, 46th St, Queens, NY 11104, USA","46 St-Bliss St","None","46th Street","11104","Queens","Queens County","New York","United States",40.7430692,-73.9182376,"['establishment', 'point_of_interest', 'subway_station', 'transit_station']","Flushing(7)","Middle Manhattan"
"102","47-50 STS ROCK","BDFM","47-50 STS ROCK subway station Line BDFM, New York","47-50 Sts-Rockefeller Ctr, New York, NY 10020, USA","47-50 Sts-Rockefeller Ctr","None","None","10020","Manhattan","New York County","New York","United States",40.75885,-73.9811861,"['establishment', 'point_of_interest', 'subway_station', 'transit_station']","6 Avenue(BDFM)","Middle Manhattan"
"103","49 ST","NQRW","49 ST subway station Line NQRW, New York","49 St, New York, NY 10019, USA","49 St","None","None","10019","Manhattan","New York County","New York","United States",40.7604939,-73.9837436,"['establishment', 'point_of_interest', 'subway_station', 'transit_station']","Broadway(NQRW)","Middle Manhattan"
"104","4AV-9 ST","DFGNR","4AV-9 ST subway station Line DFGNR, New York","4 Av, Brooklyn, NY 11215, USA","4 Av","None","None","11215","Brooklyn","Kings County","New York","United States",40.6701431,-73.989334,"['establishment', 'point_of_interest', 'subway_station', 'transit_station']","6 Avenue(BDFM)","Brooklyn"
"105","5 AV/53 ST","EM","5 AV/53 ST subway station Line EM, New York","5 Avenue-53 St Station, New York, NY 10022, USA","5 Avenue-53 St Station","None","None","10022","Manhattan","New York County","New York","United States",40.760257,-73.9754704,"['establishment', 'point_of_interest', 'subway_station', 'transit_station']","8 Avenue(ACE)","Middle Manhattan"
"106","5 AV/59 ST","NRW","5 AV/59 ST subway station Line NRW, New York","5 Av/59 St, 1-5 E 59th St, New York, NY 10022, USA","5 Av/59 St","1-5","East 59th Street","10022","Manhattan","New York County","New York","United States",40.7648676,-73.9724231,"['establishment', 'point_of_interest', 'subway_station', 'transit_station']","Broadway(NQRW)","Middle Manhattan"
"107","5 AVE","7","5 AVE subway station Line 7, New York","5 Av/59 St, 1-5 E 59th St, New York, NY 10022, USA","5 Av/59 St","1-5","East 59th Street","10022","Manhattan","New York County","New York","United States",40.7648676,-73.9724231,"['establishment', 'point_of_interest', 'subway_station', 'transit_station']","Flushing(7)","Middle Manhattan"
"108","50 ST","1","50 ST subway station Line 1, New York","50 St, New York, NY 10019, USA","50 St","None","None","10019","Manhattan","New York County","New York","United States",40.7623513,-73.9864953,"['establishment', 'point_of_interest', 'subway_station', 'transit_station']","7 Avenue(123)","Middle Manhattan"
"109","50 ST","CE","50 ST subway station Line CE, New York","50 Street Station, New York, NY 10019, USA","50 Street Station","None","None","10019","Manhattan","New York County","New York","United States",40.7614242,-73.984006,"['establishment', 'point_of_interest', 'subway_station', 'transit_station']","8 Avenue(ACE)","Middle Manhattan"
"110","50 ST","D","50 ST subway station Line D, New York","50 St, New York, NY 10019, USA","50 St","None","None","10019","Manhattan","New York County","New York","United States",40.7623513,-73.9864953,"['establishment', 'point_of_interest', 'subway_station', 'transit_station']","6 Avenue(BDFM)","Middle Manhattan"
"111","51 ST","6","51 ST subway station Line 6, New York","51 St, Lexington &, E 51st St, New York, NY 10022, USA","51 St","None","East 51st Street","10022","Manhattan","New York County","New York","United States",40.757135,-73.9719119,"['establishment', 'point_of_interest', 'subway_station', 'transit_station']","Lexington Av(456)","Middle Manhattan"
"112","52 ST","7","52 ST subway station Line 7, New York","52 St - Lincoln Av Station, Queens, NY 11377, USA","52 St - Lincoln Av Station","None","None","11377","Queens","Queens County","New York","United States",40.7442902,-73.9121748,"['establishment', 'point_of_interest', 'subway_station', 'transit_station']","Flushing(7)","Middle Manhattan"
"113","53 ST","R","53 ST subway station Line R, New York","53 St, 53rd St, Brooklyn, NY 11220, USA","53 St","None","53rd Street","11220","Brooklyn","Kings County","New York","United States",40.6446283,-74.0145512,"['establishment', 'point_of_interest', 'subway_station', 'transit_station']","Broadway(NQRW)","Brooklyn"
"114","55 ST","D","55 ST subway station Line D, New York","55 St, 55th St, Brooklyn, NY 11219, USA","55 St","None","55th Street","11219","Brooklyn","Kings County","New York","United States",40.6315514,-73.9956328,"['establishment', 'point_of_interest', 'subway_station', 'transit_station']","6 Avenue(BDFM)","Brooklyn"
"115","57 ST","F","57 ST subway station Line F, New York","57 Street, New York, NY 10019, USA","57 Street","None","None","10019","Manhattan","New York County","New York","United States",40.7641653,-73.9773134,"['establishment', 'point_of_interest', 'subway_station', 'transit_station']","6 Avenue(BDFM)","Middle Manhattan"
"116","57 ST-7 AV","NQRW","57 ST-7 AV subway station Line NQRW, New York","57 Street, New York, NY 10106, USA","57 Street","None","None","10106","Manhattan","New York County","New York","United States",40.7655439,-73.9803258,"['establishment', 'point_of_interest', 'subway_station', 'transit_station']","Broadway(NQRW)","Middle Manhattan"
"117","59 ST","456NQRW","59 ST subway station Line 456NQRW, New York","59 St-Lexington Av, E 60th St, New York, NY 10065, USA","59 St-Lexington Av","None","East 60th Street","10065","Manhattan","New York County","New York","United States",40.7628581,-73.9676762,"['establishment', 'point_of_interest', 'subway_station', 'transit_station']","Broadway(NQRW)","Middle Manhattan"
"118","59 ST","456NRW","59 ST subway station Line 456NRW, New York","59 St-Columbus Circle, Columbus Cir, New York, NY 10023, USA","59 St-Columbus Circle","None","Columbus Circle","10023","Manhattan","New York County","New York","United States",40.7686521,-73.9814538,"['establishment', 'point_of_interest', 'subway_station', 'transit_station']","Broadway(NQRW)","Middle Manhattan"
"119","59 ST","NR","59 ST subway station Line NR, New York","59 St, 59th St, Brooklyn, NY 11220, USA","59 St","None","59th Street","11220","Brooklyn","Kings County","New York","United States",40.6415585,-74.0176646,"['establishment', 'point_of_interest', 'subway_station', 'transit_station']","Broadway(NQRW)","Brooklyn"
"120","59 ST COLUMBUS","1ABCD","59 ST COLUMBUS subway station Line 1ABCD, New York","59 St-Columbus Circle, Columbus Cir, New York, NY 10023, USA","59 St-Columbus Circle","None","Columbus Circle","10023","Manhattan","New York County","New York","United States",40.7686521,-73.9814538,"['establishment', 'point_of_interest', 'subway_station', 'transit_station']","8 Avenue(ACE)","Middle Manhattan"
"121","6 AV","FM","6 AV subway station Line FM, New York","14 St / 6 Av, New York, NY 10011, USA","14 St / 6 Av","None","None","10011","Manhattan","New York County","New York","United States",40.7373654,-73.9968452,"['establishment', 'point_of_interest', 'subway_station', 'transit_station']","6 Avenue(BDFM)","Lower Manhattan"
"122","61 ST WOODSIDE","7","61 ST WOODSIDE subway station Line 7, New York","61 St - Woodside, Queens, NY 11377, USA","61 St - Woodside","None","None","11377","Queens","Queens County","New York","United States",40.7457078,-73.902904,"['establishment', 'point_of_interest', 'subway_station', 'transit_station']","Flushing(7)","Middle Manhattan"
"123","63 DR-REGO PARK","MR","63 DR-REGO PARK subway station Line MR, New York","63rd Drive - Rego Park, 63rd Dr, Queens, NY 11374, USA","63rd Drive - Rego Park","None","63rd Drive","11374","Queens","Queens County","New York","United States",40.730441,-73.8623473,"['establishment', 'point_of_interest', 'subway_station', 'transit_station']","6 Avenue(BDFM)","Queen"
"124","65 ST","MR","65 ST subway station Line MR, New York","65 St, Queens, NY 11377, USA","65 St","None","None","11377","Queens","Queens County","New York","United States",40.7492531,-73.8975334,"['establishment', 'point_of_interest', 'subway_station', 'transit_station']","6 Avenue(BDFM)","Middle Manhattan"
"125","66 ST-LINCOLN","1","66 ST-LINCOLN subway station Line 1, New York","66 St - Lincoln Center, New York, NY 10023, USA","66 St-Lincoln Center","None","None","10023","Manhattan","New York County","New York","United States",40.7736972,-73.9822288,"['establishment', 'point_of_interest', 'subway_station', 'transit_station']","7 Avenue(123)","Middle Manhattan"
"126","67 AV","MR","67 AV subway station Line MR, New York","67 Avenue Station, Queens, NY 11375, USA","67 Avenue Station","None","None","11375","Queens","Queens County","New York","United States",40.7270427,-73.8531493,"['establishment', 'point_of_interest', 'subway_station', 'transit_station']","6 Avenue(BDFM)","Queen"
"127","68ST-HUNTER CO","6","68ST-HUNTER CO subway station Line 6, New York","68 St-Hunter College, New York, NY 10021, USA","68 St-Hunter College","None","None","10021","Manhattan","New York County","New York","United States",40.7678741,-73.9638866,"['establishment', 'point_of_interest', 'subway_station', 'transit_station']","Lexington Av(456)","Middle Manhattan"
"128","69 ST","7","69 ST subway station Line 7, New York","69 St-Fisk Av Station, Queens, NY 11377, USA","69 St-Fisk Av Station","None","None","11377","Queens","Queens County","New York","United States",40.7462906,-73.8963229,"['establishment', 'point_of_interest', 'subway_station', 'transit_station']","Flushing(7)","Middle Manhattan"
"129","7 AV","BDE","7 AV subway station Line BDE, New York","14 St / 8 Av, 300 W 14th St, New York, NY 10014, USA","14 St / 8 Av","300","West 14th Street","10014","Manhattan","New York County","New York","United States",40.7398699,-74.0027626,"['establishment', 'point_of_interest', 'subway_station', 'transit_station']","6 Avenue(BDFM)","Lower Manhattan"
"130","7 AV","BQ","7 AV subway station Line BQ, New York","801-819 7th Ave, New York, NY 10019, USA","None","801-819","7th Avenue","10019","Manhattan","New York County","New York","United States",40.762747,-73.982353,"['establishment', 'point_of_interest']","6 Avenue(BDFM)","Middle Manhattan"
"131","7 AV","FG","7 AV subway station Line FG, New York","57 Street, New York, NY 10106, USA","57 Street","None","None","10106","Manhattan","New York County","New York","United States",40.7655439,-73.9803258,"['establishment', 'point_of_interest', 'subway_station', 'transit_station']","6 Avenue(BDFM)","Middle Manhattan"
"132","71 ST","D","71 ST subway station Line D, New York","71 St, 71st St, Brooklyn, NY 11228, USA","71 St","None","71st Street","11228","Brooklyn","Kings County","New York","United States",40.6196136,-73.9987765,"['establishment', 'point_of_interest', 'subway_station', 'transit_station']","6 Avenue(BDFM)","Brooklyn"
"133","72 ST","123","72 ST subway station Line 123, New York","72 St, 2nd Ave, New York, NY 10021, USA","72 St","None","2nd Avenue","10021","Manhattan","New York County","New York","United States",40.7686869,-73.9584429,"['establishment', 'point_of_interest', 'subway_station', 'transit_station']","7 Avenue(123)","Middle Manhattan"
"134","72 ST","BC","72 ST subway station Line BC, New York","72 St, 2nd Ave, New York, NY 10021, USA","72 St","None","2nd Avenue","10021","Manhattan","New York County","New York","United States",40.7686869,-73.9584429,"['establishment', 'point_of_interest', 'subway_station', 'transit_station']","8 Avenue(ACE)","Middle Manhattan"
"135","72 ST-2 AVE","Q","72 ST-2 AVE subway station Line Q, New York","72 St, 2nd Ave, New York, NY 10021, USA","72 St","None","2nd Avenue","10021","Manhattan","New York County","New York","United States",40.7686869,-73.9584429,"['establishment', 'point_of_interest', 'subway_station', 'transit_station']","Broadway(NQRW)","Middle Manhattan"
"136","74 ST-BROADWAY","7","74 ST-BROADWAY subway station Line 7, New York","74 St - Broadway/Roosevelt Av - Jackson Heights, Roosevelt Ave &, 74th Street, Queens, NY 11372, USA","74 St - Broadway/Roosevelt Av - Jackson Heights","None","74th Street","11372","Queens","Queens County","New York","United States",40.746739,-73.8909986,"['establishment', 'point_of_interest', 'subway_station', 'transit_station']","Flushing(7)","Queen"
"137","75 AV","EF","75 AV subway station Line EF, New York","75th Ave, Queens, NY 11375, USA","None","None","75th Avenue","11375","Queens","Queens County","New York","United States",40.7189789,-73.8372864,"['route']","8 Avenue(ACE)","Queen"
"138","75 ST-ELDERTS","JZ","75 ST-ELDERTS subway station Line JZ, New York","75 St - Elderts Ln, Woodhaven, NY 11421, USA","75 St - Elderts Ln","None","None","11421","Queens","Queens County","New York","United States",40.6914365,-73.8665512,"['establishment', 'point_of_interest', 'subway_station', 'transit_station']","8 Avenue(ACE)","Queen"
"139","77 ST","6","77 ST subway station Line 6, New York","77 St, E 77th St, New York, NY 10075, USA","77 St","None","East 77th Street","10075","Manhattan","New York County","New York","United States",40.7736346,-73.9598294,"['establishment', 'point_of_interest', 'subway_station', 'transit_station']","Lexington Av(456)","Middle Manhattan"
"140","77 ST","R","77 ST subway station Line R, New York","77 St, E 77th St, New York, NY 10075, USA","77 St","None","East 77th Street","10075","Manhattan","New York County","New York","United States",40.7736346,-73.9598294,"['establishment', 'point_of_interest', 'subway_station', 'transit_station']","Broadway(NQRW)","Middle Manhattan"
"141","79 ST","1","79 ST subway station Line 1, New York","79 St, New York, NY 10024, USA","79 St","None","None","10024","Manhattan","New York County","New York","United States",40.783934,-73.979917,"['establishment', 'point_of_interest', 'transit_station']","7 Avenue(123)","Middle Manhattan"
"142","79 ST","D","79 ST subway station Line D, New York","79 Street Station, 79th St, Brooklyn, NY 11214, USA","79 Street Station","None","79th Street","11214","Brooklyn","Kings County","New York","United States",40.6135523,-74.0005199,"['establishment', 'point_of_interest', 'subway_station', 'transit_station']","6 Avenue(BDFM)","Brooklyn"
"143","8 AV","ACEL","8 AV subway station Line ACEL, New York","14 St / 8 Av, 300 W 14th St, New York, NY 10014, USA","14 St / 8 Av","300","West 14th Street","10014","Manhattan","New York County","New York","United States",40.7398699,-74.0027626,"['establishment', 'point_of_interest', 'subway_station', 'transit_station']","8 Avenue(ACE)","Lower Manhattan"
"144","8 AV","N","8 AV subway station Line N, New York","8 Av, 8th Ave &, 62nd St, Brooklyn, NY 11220, USA","8 Av","None","62nd Street","11220","Brooklyn","Kings County","New York","United States",40.6345839,-74.0108021,"['establishment', 'point_of_interest', 'subway_station', 'transit_station']","Broadway(NQRW)","Brooklyn"
"145","8 ST-NYU","NRW","8 ST-NYU subway station Line NRW, New York","8 Street Station, New York, NY 10003, USA","8 Street Station","None","None","10003","Manhattan","New York County","New York","United States",40.7306579,-73.9923894,"['establishment', 'point_of_interest', 'subway_station', 'transit_station']","Broadway(NQRW)","Lower Manhattan"
"146","80 ST","A","80 ST subway station Line A, New York","80 St, Queens, NY 11417, USA","80 St","None","None","11417","Queens","Queens County","New York","United States",40.6793295,-73.8590167,"['establishment', 'point_of_interest', 'subway_station', 'transit_station']","8 Avenue(ACE)","Queen"
"147","81 ST-MUSEUM","BC","81 ST-MUSEUM subway station Line BC, New York","81 St - Museum of Natural History, New York, NY 10024, USA","81 St - Museum of Natural History","None","None","10024","Manhattan","New York County","New York","United States",40.7819786,-73.9720136,"['establishment', 'point_of_interest', 'transit_station']","8 Avenue(ACE)","Middle Manhattan"
"148","82 ST-JACKSON H","7","82 ST-JACKSON H subway station Line 7, New York","82 Street Station, Queens, NY 11372, USA","82 Street Station","None","None","11372","Queens","Queens County","New York","United States",40.7477145,-73.8839373,"['establishment', 'point_of_interest', 'subway_station', 'transit_station']","Flushing(7)","Queen"
"149","85 ST-FOREST PK","J","85 ST-FOREST PK subway station Line J, New York","85 St-Forest Pkwy, 85th St &, Jamaica Ave, Queens, NY 11421, USA","85 St-Forest Pkwy","None","Jamaica Avenue","11421","Queens","Queens County","New York","United States",40.6924861,-73.8590708,"['establishment', 'point_of_interest', 'subway_station', 'transit_station']","8 Avenue(ACE)","Queen"
"150","86 ST","1","86 ST subway station Line 1, New York","86 St, New York, NY 10024, USA","86 St","None","None","10024","Manhattan","New York County","New York","United States",40.7852685,-73.9695849,"['establishment', 'point_of_interest', 'subway_station', 'transit_station']","7 Avenue(123)","Middle Manhattan"
"151","86 ST","456","86 ST subway station Line 456, New York","86th St, 300-398 East 86th St, New York, NY 10028, USA","86th St","300-398","East 86th Street","10028","Manhattan","New York County","New York","United States",40.7777409,-73.9515672,"['establishment', 'point_of_interest', 'subway_station', 'transit_station']","Lexington Av(456)","Middle Manhattan"
"152","86 ST","BC","86 ST subway station Line BC, New York","86 St, New York, NY 10024, USA","86 St","None","None","10024","Manhattan","New York County","New York","United States",40.7852685,-73.9695849,"['establishment', 'point_of_interest', 'subway_station', 'transit_station']","8 Avenue(ACE)","Middle Manhattan"
"153","86 ST","N","86 ST subway station Line N, New York","86th St, 300-398 East 86th St, New York, NY 10028, USA","86th St","300-398","East 86th Street","10028","Manhattan","New York County","New York","United States",40.7777409,-73.9515672,"['establishment', 'point_of_interest', 'subway_station', 'transit_station']","Broadway(NQRW)","Middle Manhattan"
"154","86 ST","R","86 ST subway station Line R, New York","86 St, Brooklyn, NY 11209, USA","86 St","None","None","11209","Brooklyn","Kings County","New York","United States",40.6226333,-74.0285544,"['establishment', 'point_of_interest', 'subway_station', 'transit_station']","Broadway(NQRW)","Brooklyn"
"155","86 ST-2 AVE","Q","86 ST-2 AVE subway station Line Q, New York","86th St, 300-398 East 86th St, New York, NY 10028, USA","86th St","300-398","East 86th Street","10028","Manhattan","New York County","New York","United States",40.7777409,-73.9515672,"['establishment', 'point_of_interest', 'subway_station', 'transit_station']","Broadway(NQRW)","Middle Manhattan"
"156","88 ST","A","88 ST subway station Line A, New York","88 St, Queens, NY 11417, USA","88 St","None","None","11417","Queens","Queens County","New York","United States",40.679844,-73.851471,"['establishment', 'point_of_interest', 'subway_station', 'transit_station']","8 Avenue(ACE)","Queen"
"157","9 AV","D","9 AV subway station Line D, New York","9 Avenue, 9th Ave, Brooklyn, NY 11219, USA","9 Avenue","None","9th Avenue","11219","Brooklyn","Kings County","New York","United States",40.6463186,-73.994369,"['establishment', 'point_of_interest', 'subway_station', 'transit_station']","6 Avenue(BDFM)","Brooklyn"
"158","90 ST-ELMHURST","7","90 ST-ELMHURST subway station Line 7, New York","90 St - Elmhurst Av, Queens, NY 11372, USA","90 St - Elmhurst Av","None","None","11372","Queens","Queens County","New York","United States",40.7484367,-73.8765289,"['establishment', 'point_of_interest', 'subway_station', 'transit_station']","Flushing(7)","Queen"
"159","96 ST","123","96 ST subway station Line 123, New York","96 St, New York, NY 10025, USA","96 St","None","None","10025","Manhattan","New York County","New York","United States",40.7941912,-73.9721368,"['establishment', 'point_of_interest', 'transit_station']","7 Avenue(123)","Middle Manhattan"
"160","96 ST","6","96 ST subway station Line 6, New York","96 St, New York, NY 10128, USA","96 St","None","None","10128","Manhattan","New York County","New York","United States",40.7841539,-73.9474218,"['establishment', 'point_of_interest', 'subway_station', 'transit_station']","Lexington Av(456)","Middle Manhattan"
"161","96 ST","BC","96 ST subway station Line BC, New York","96 St, W 96th St, New York, NY 10025, USA","96 St","None","West 96th Street","10025","Manhattan","New York County","New York","United States",40.7941912,-73.9721368,"['establishment', 'point_of_interest', 'subway_station', 'transit_station']","8 Avenue(ACE)","Middle Manhattan"
"162","96 ST-2 AVE","Q","96 ST-2 AVE subway station Line Q, New York","96 St, New York, NY 10128, USA","96 St","None","None","10128","Manhattan","New York County","New York","United States",40.7841539,-73.9474218,"['establishment', 'point_of_interest', 'subway_station', 'transit_station']","Broadway(NQRW)","Middle Manhattan"
"163","9TH STREET","1","9TH STREET subway station Line 1, New York","4 Av, Brooklyn, NY 11215, USA","4 Av","None","None","11215","Brooklyn","Kings County","New York","United States",40.6701431,-73.989334,"['establishment', 'point_of_interest', 'subway_station', 'transit_station']","7 Avenue(123)","Brooklyn"
"164","ALABAMA AV","J","ALABAMA AV subway station Line J, New York","Alabama Avenue Station, Brooklyn, NY 11207, USA","Alabama Avenue Station","None","None","11207","Brooklyn","Kings County","New York","United States",40.6768953,-73.8994119,"['establishment', 'point_of_interest', 'subway_station', 'transit_station']","8 Avenue(ACE)","Queen-Brooklyn"
"165","ALLERTON AV","25","ALLERTON AV subway station Line 25, New York","Allerton Av, Bronx, NY 10467, USA","Allerton Av","None","None","10467","Bronx","Bronx County","New York","United States",40.8653937,-73.8672655,"['establishment', 'point_of_interest', 'subway_station', 'transit_station']","7 Avenue(123)","Bronx"
"166","AQUEDUCT N.COND","A","AQUEDUCT N.COND subway station Line A, New York","Aqueduct-N Conduit Av, Queens, NY 11417, USA","Aqueduct-N Conduit Av","None","None","11417","Queens","Queens County","New York","United States",40.6682673,-73.834031,"['establishment', 'point_of_interest', 'subway_station', 'transit_station']","8 Avenue(ACE)","Queen"
"167","AQUEDUCT RACETR","A","AQUEDUCT RACETR subway station Line A, New York","Aqueduct Racetrack, Queens, NY 11417, USA","Aqueduct Racetrack","None","None","11417","Queens","Queens County","New York","United States",40.6722068,-73.8357272,"['establishment', 'point_of_interest', 'subway_station', 'transit_station']","8 Avenue(ACE)","Queen"
"168","ASTOR PL","6","ASTOR PL subway station Line 6, New York","Astor Pl, New York, NY 10003, USA","Astor Pl","None","None","10003","Manhattan","New York County","New York","United States",40.7300939,-73.9908372,"['establishment', 'point_of_interest', 'subway_station', 'transit_station']","Lexington Av(456)","Lower Manhattan"
"169","ASTORIA BLVD","NW","ASTORIA BLVD subway station Line NW, New York","Astoria - Ditmars Blvd, Queens, NY 11105, USA","Astoria - Ditmars Blvd","None","None","11105","Queens","Queens County","New York","United States",40.7750119,-73.91211,"['establishment', 'point_of_interest', 'subway_station', 'transit_station']","Broadway(NQRW)","Middle Manhattan"
"170","ASTORIA DITMARS","NW","ASTORIA DITMARS subway station Line NW, New York","Astoria - Ditmars Blvd, Queens, NY 11105, USA","Astoria - Ditmars Blvd","None","None","11105","Queens","Queens County","New York","United States",40.7750119,-73.91211,"['establishment', 'point_of_interest', 'subway_station', 'transit_station']","Broadway(NQRW)","Middle Manhattan"
"171","ATL AV-BARCLAY","2345BDNQR","ATL AV-BARCLAY subway station Line 2345BDNQR, New York","Atlantic Av-Barclays Ctr, Brooklyn, NY 11217, USA","Atlantic Av-Barclays Ctr","None","None","11217","Brooklyn","Kings County","New York","United States",40.6837598,-73.9787574,"['establishment', 'point_of_interest', 'subway_station', 'transit_station']","Broadway(NQRW)","Lower Manhattan"
"172","ATLANTIC AV","L","ATLANTIC AV subway station Line L, New York","Atlantic Av, Brooklyn, NY 11207, USA","Atlantic Av","None","None","11207","Brooklyn","Kings County","New York","United States",40.675554,-73.9030576,"['establishment', 'point_of_interest', 'subway_station', 'transit_station']","14 St-Canarsie(L)","Queen-Brooklyn"
"173","AVENUE H","BQ","AVENUE H subway station Line BQ, New York","Avenue H, Brooklyn, NY 11230, USA","Avenue H","None","None","11230","Brooklyn","Kings County","New York","United States",40.6297251,-73.9616534,"['establishment', 'point_of_interest', 'subway_station', 'transit_station']","6 Avenue(BDFM)","Brooklyn"
"174","AVENUE I","F","AVENUE I subway station Line F, New York","Avenue I, Avenue I, Brooklyn, NY 11230, USA","None","None","None","11230","Brooklyn","Kings County","New York","United States",40.6261084,-73.9761484,"['establishment', 'point_of_interest', 'subway_station', 'transit_station']","6 Avenue(BDFM)","Brooklyn"
"175","AVENUE J","BQ","AVENUE J subway station Line BQ, New York","Avenue J, Brooklyn, NY 11230, USA","Avenue J","None","None","11230","Brooklyn","Kings County","New York","United States",40.6252684,-73.9607296,"['establishment', 'point_of_interest', 'subway_station', 'transit_station']","6 Avenue(BDFM)","Brooklyn"
"176","AVENUE M","BQ","AVENUE M subway station Line BQ, New York","Avenue M, Ave. M, Brooklyn, NY 11230, USA","Avenue M","None","Avenue M","11230","Brooklyn","Kings County","New York","United States",40.61807,-73.9593711,"['establishment', 'point_of_interest', 'subway_station', 'transit_station']","6 Avenue(BDFM)","Brooklyn"
"177","AVENUE N","F","AVENUE N subway station Line F, New York","Avenue N, Avenue N, Brooklyn, NY 11230, USA","None","None","None","11230","Brooklyn","Kings County","New York","United States",40.6154248,-73.9741599,"['establishment', 'point_of_interest', 'subway_station', 'transit_station']","6 Avenue(BDFM)","Brooklyn"
"178","AVENUE P","F","AVENUE P subway station Line F, New York","Avenue P, Avenue P, Brooklyn, NY 11223, USA","Avenue P","None","Avenue P","11223","Brooklyn","Kings County","New York","United States",40.6087814,-73.9729084,"['establishment', 'point_of_interest', 'subway_station', 'transit_station']","6 Avenue(BDFM)","Brooklyn"
"179","AVENUE U","BQ","AVENUE U subway station Line BQ, New York","Avenue U, Avenue U, Brooklyn, NY 11223, USA","Avenue U","None","Avenue U","11223","Brooklyn","Kings County","New York","United States",40.5965048,-73.9789465,"['establishment', 'point_of_interest', 'subway_station', 'transit_station']","6 Avenue(BDFM)","Brooklyn"
"180","AVENUE U","F","AVENUE U subway station Line F, New York","Avenue U, Avenue U, Brooklyn, NY 11223, USA","Avenue U","None","Avenue U","11223","Brooklyn","Kings County","New York","United States",40.5968437,-73.973377,"['establishment', 'point_of_interest', 'subway_station', 'transit_station']","6 Avenue(BDFM)","Brooklyn"
"181","AVENUE U","N","AVENUE U subway station Line N, New York","Avenue U, Avenue U, Brooklyn, NY 11223, USA","Avenue U","None","Avenue U","11223","Brooklyn","Kings County","New York","United States",40.5965048,-73.9789465,"['establishment', 'point_of_interest', 'subway_station', 'transit_station']","Broadway(NQRW)","Brooklyn"
"182","AVENUE X","F","AVENUE X subway station Line F, New York","Avenue X, Brooklyn, NY 11223, USA","Avenue X","None","None","11223","Brooklyn","Kings County","New York","United States",40.5896822,-73.9742509,"['establishment', 'point_of_interest', 'subway_station', 'transit_station']","6 Avenue(BDFM)","Brooklyn"
"183","B'WAY-LAFAYETTE","6BDFQ","B'WAY-LAFAYETTE subway station Line 6BDFQ, New York","Broadway-Lafayette St, Lafayette St &, E Houston St, New York, NY 10012, USA","Broadway-Lafayette St","None","East Houston Street","10012","Manhattan","New York County","New York","United States",40.7253515,-73.9956131,"['establishment', 'point_of_interest', 'subway_station', 'transit_station']","6 Avenue(BDFM)","Lower Manhattan"
"184","BAY 50 ST","D","BAY 50 ST subway station Line D, New York","Bay 50 St, Brooklyn, NY 11214, USA","Bay 50 St","None","None","11214","Brooklyn","Kings County","New York","United States",40.588713,-73.9838148,"['establishment', 'point_of_interest', 'subway_station', 'transit_station']","6 Avenue(BDFM)","Brooklyn"
"185","BAY PKWY","D","BAY PKWY subway station Line D, New York","Bay Pkwy, Bay Pkwy, Brooklyn, NY 11214, USA","Bay Pkwy","None","Bay Parkway","11214","Brooklyn","Kings County","New York","United States",40.6018742,-73.9937222,"['establishment', 'point_of_interest', 'subway_station', 'transit_station']","6 Avenue(BDFM)","Brooklyn"
"186","BAY PKWY","F","BAY PKWY subway station Line F, New York","Bay Pkwy, Bay Pkwy, Brooklyn, NY 11230, USA","Bay Pkwy","None","Bay Parkway","11230","Brooklyn","Kings County","New York","United States",40.6209813,-73.9753623,"['establishment', 'point_of_interest', 'subway_station', 'transit_station']","6 Avenue(BDFM)","Brooklyn"
"187","BAY PKWY","N","BAY PKWY subway station Line N, New York","Bay Pkwy, Bay Pkwy, Brooklyn, NY 11230, USA","Bay Pkwy","None","Bay Parkway","11230","Brooklyn","Kings County","New York","United States",40.6209813,-73.9753623,"['establishment', 'point_of_interest', 'subway_station', 'transit_station']","Broadway(NQRW)","Brooklyn"
"188","BAY RIDGE-95 ST","R","BAY RIDGE-95 ST subway station Line R, New York","Bay Ridge - 95 St, Brooklyn, NY 11209, USA","Bay Ridge - 95 St","None","None","11209","Brooklyn","Kings County","New York","United States",40.6161869,-74.0312433,"['establishment', 'point_of_interest', 'subway_station', 'transit_station']","Broadway(NQRW)","Brooklyn"
"189","BAY RIDGE AV","R","BAY RIDGE AV subway station Line R, New York","Bay Ridge Av, Brooklyn, NY 11220, USA","Bay Ridge Av","None","None","11220","Brooklyn","Kings County","New York","United States",40.634968,-74.023376,"['establishment', 'point_of_interest', 'subway_station', 'transit_station']","Broadway(NQRW)","Brooklyn"
"190","BAYCHESTER AV","5","BAYCHESTER AV subway station Line 5, New York","Baychester Avenue Station, Bronx, NY 10469, USA","Baychester Avenue Station","None","None","10469","Bronx","Bronx County","New York","United States",40.8790983,-73.8381028,"['establishment', 'point_of_interest', 'subway_station', 'transit_station']","Lexington Av(456)","Bronx"
"191","BEACH 105 ST","AS","BEACH 105 ST subway station Line AS, New York","Beach 105 St, Queens, NY 11694, USA","Beach 105 St","None","None","11694","Queens","Queens County","New York","United States",40.5832071,-73.8273751,"['establishment', 'point_of_interest', 'subway_station', 'transit_station']","8 Avenue(ACE)","Rockaway Beach"
"192","BEACH 25 ST","A","BEACH 25 ST subway station Line A, New York","Beach 25 St, Beach 25th St &, Rockaway Fwy, Queens, NY 11691, USA","Beach 25 St","None","Rockaway Freeway","11691","Queens","Queens County","New York","United States",40.5994598,-73.7618448,"['establishment', 'point_of_interest', 'subway_station', 'transit_station']","8 Avenue(ACE)","Rockaway Beach"
"193","BEACH 36 ST","A","BEACH 36 ST subway station Line A, New York","Beach 36 St, Queens, NY 11691, USA","Beach 36 St","None","None","11691","Queens","Queens County","New York","United States",40.595532,-73.7681238,"['establishment', 'point_of_interest', 'subway_station', 'transit_station']","8 Avenue(ACE)","Rockaway Beach"
"194","BEACH 44 ST","A","BEACH 44 ST subway station Line A, New York","Beach 44 St Station Frank Avenue, Queens, NY 11691, USA","Beach 44 St Station Frank Avenue","None","None","11691","Queens","Queens County","New York","United States",40.5929209,-73.7759484,"['establishment', 'point_of_interest', 'subway_station', 'transit_station']","8 Avenue(ACE)","Rockaway Beach"
"195","BEACH 60 ST","A","BEACH 60 ST subway station Line A, New York","Beach 60 St - Straiton Avenue, Queens, NY 11692, USA","Beach 60 St - Straiton Avenue","None","None","11692","Queens","Queens County","New York","United States",40.59244,-73.789283,"['establishment', 'point_of_interest', 'subway_station', 'transit_station']","8 Avenue(ACE)","Rockaway Beach"
"196","BEACH 67 ST","A","BEACH 67 ST subway station Line A, New York","Beach 67 St, Queens, NY 11692, USA","Beach 67 St","None","None","11692","Queens","Queens County","New York","United States",40.5909714,-73.7963169,"['establishment', 'point_of_interest', 'subway_station', 'transit_station']","8 Avenue(ACE)","Rockaway Beach"
"197","BEACH 90 ST","AS","BEACH 90 ST subway station Line AS, New York","Beach 90 St, Queens, NY 11693, USA","Beach 90 St","None","None","11693","Queens","Queens County","New York","United States",40.5878447,-73.8140238,"['establishment', 'point_of_interest', 'subway_station', 'transit_station']","8 Avenue(ACE)","Rockaway Beach"
"198","BEACH 98 ST","AS","BEACH 98 ST subway station Line AS, New York","Beach 98 Street - Playland, Queens, NY 11694, USA","Beach 98 Street - Playland","None","None","11694","Queens","Queens County","New York","United States",40.5854889,-73.8203521,"['establishment', 'point_of_interest', 'subway_station', 'transit_station']","8 Avenue(ACE)","Rockaway Beach"
"199","BEDFORD-NOSTRAN","G","BEDFORD-NOSTRAN subway station Line G, New York","Bedford - Nostrand Avs, Nostrand Ave., Brooklyn, NY 11205, USA","Bedford - Nostrand Avs","None","Nostrand Avenue","11205","Brooklyn","Kings County","New York","United States",40.6898534,-73.9516398,"['establishment', 'point_of_interest', 'subway_station', 'transit_station']","Brooklyn-Queens Crosstown(G)","Queen-Brooklyn"
"200","BEDFORD AV","L","BEDFORD AV subway station Line L, New York","Bedford Av, Bedford Ave, Brooklyn, NY 11211, USA","Bedford Av","None","Bedford Avenue","11211","Brooklyn","Kings County","New York","United States",40.7173546,-73.9569726,"['establishment', 'point_of_interest', 'subway_station', 'transit_station']","14 St-Canarsie(L)","Lower Manhattan"
"201","BEDFORD PK BLVD","4","BEDFORD PK BLVD subway station Line 4, New York","Bedford Park Blvd, Bronx, NY 10458, USA","Bedford Park Blvd","None","None","10458","Bronx","Bronx County","New York","United States",40.8740355,-73.8864688,"['establishment', 'point_of_interest', 'subway_station', 'transit_station']","Lexington Av(456)","Bronx"
"202","BEDFORD PK BLVD","BD","BEDFORD PK BLVD subway station Line BD, New York","Bedford Pk Blvd, Bronx, NY 10468, USA","Bedford Pk Blvd","None","None","10468","Bronx","Bronx County","New York","United States",40.8734052,-73.8902379,"['establishment', 'point_of_interest', 'subway_station', 'transit_station']","6 Avenue(BDFM)","Bronx"
"203","BERGEN ST","23","BERGEN ST subway station Line 23, New York","23 St, E 23rd St, New York, NY 10010, USA","23 St","None","East 23rd Street","10010","Manhattan","New York County","New York","United States",40.7412012,-73.9890337,"['establishment', 'point_of_interest', 'subway_station', 'transit_station']","7 Avenue(123)","Lower Manhattan"
"204","BERGEN ST","FG","BERGEN ST subway station Line FG, New York","Bergen St Station, Brooklyn, NY 11201, USA","Bergen St Station","None","None","11201","Brooklyn","Kings County","New York","United States",40.6854538,-73.9913378,"['establishment', 'point_of_interest', 'subway_station', 'transit_station']","6 Avenue(BDFM)","Lower Manhattan"
"205","BEVERLEY ROAD","BQ","BEVERLEY ROAD subway station Line BQ, New York","Beverley Road, Beverley Rd, Brooklyn, NY 11226, USA","Beverley Road","None","Beverley Road","11226","Brooklyn","Kings County","New York","United States",40.6442398,-73.9645254,"['establishment', 'point_of_interest', 'subway_station', 'transit_station']","6 Avenue(BDFM)","Brooklyn"
"206","BEVERLY RD","25","BEVERLY RD subway station Line 25, New York","Beverley Road, Beverley Rd, Brooklyn, NY 11226, USA","Beverley Road","None","Beverley Road","11226","Brooklyn","Kings County","New York","United States",40.6442398,-73.9645254,"['establishment', 'point_of_interest', 'subway_station', 'transit_station']","7 Avenue(123)","Brooklyn"
"207","BLEECKER ST","6DF","BLEECKER ST subway station Line 6DF, New York","Bleecker St, New York, NY 10012, USA","Bleecker St","None","None","10012","Manhattan","New York County","New York","United States",40.725914,-73.994659,"['establishment', 'point_of_interest', 'subway_station', 'transit_station']","6 Avenue(BDFM)","Lower Manhattan"
"208","BOROUGH HALL","2345R","BOROUGH HALL subway station Line 2345R, New York","Borough Hall, Freedom#8573311~!# New York US, Brooklyn, NY 11201, USA","Borough Hall","None","None","11201","Brooklyn","Kings County","New York","United States",40.6931492,-73.9900883,"['establishment', 'point_of_interest', 'transit_station']","7 Avenue(123)","Lower Manhattan"
"209","BOTANIC GARDEN","S","BOTANIC GARDEN subway station Line S, New York","Botanic Garden, Brooklyn, NY 11225, USA","Botanic Garden","None","None","11225","Brooklyn","Kings County","New York","United States",40.6706274,-73.9591014,"['establishment', 'point_of_interest', 'subway_station', 'transit_station']","Shuttle(S)","Queen-Brooklyn"
"210","BOWERY","JZ","BOWERY subway station Line JZ, New York","Bowery, Bowery, NY 10002, USA","Bowery","None","None","10002","Manhattan","New York County","New York","United States",40.7201669,-73.9935279,"['establishment', 'point_of_interest', 'subway_station', 'transit_station']","8 Avenue(ACE)","Lower Manhattan"
"211","BOWLING GREEN","45","BOWLING GREEN subway station Line 45, New York","Bowling Green, New York, NY 10004, USA","Bowling Green","None","None","10004","Manhattan","New York County","New York","United States",40.7048108,-74.0144596,"['establishment', 'point_of_interest', 'subway_station', 'transit_station']","Lexington Av(456)","Lower Manhattan"
"212","BRIARWOOD","EF","BRIARWOOD subway station Line EF, New York","Briarwood, &, Queens Blvd &, Main St, Queens, NY 11435, USA","Briarwood","None","Main Street","11435","Queens","Queens County","New York","United States",40.7096808,-73.8195688,"['establishment', 'point_of_interest', 'subway_station', 'transit_station']","8 Avenue(ACE)","Queen"
"213","BRIGHTON BEACH","BQ","BRIGHTON BEACH subway station Line BQ, New York","Brighton Beach, Brooklyn, NY 11235, USA","Brighton Beach","None","None","11235","Brooklyn","Kings County","New York","United States",40.5776648,-73.9612769,"['establishment', 'point_of_interest', 'transit_station']","6 Avenue(BDFM)","Brooklyn"
"214","BROAD CHANNEL","AS","BROAD CHANNEL subway station Line AS, New York","Broad Channel Station, Queens, NY 11693, USA","Broad Channel Station","None","None","11693","Queens","Queens County","New York","United States",40.6079998,-73.8158045,"['establishment', 'point_of_interest', 'subway_station', 'transit_station']","8 Avenue(ACE)","Rockaway Beach"
"215","BROAD ST","JZ","BROAD ST subway station Line JZ, New York","Broad St, New York, NY 10005, USA","Broad St","None","None","10005","Manhattan","New York County","New York","United States",40.7070097,-74.0107831,"['establishment', 'point_of_interest', 'subway_station', 'transit_station']","8 Avenue(ACE)","Lower Manhattan"
"216","BROADWAY","G","BROADWAY subway station Line G, New York","Broadway, Broadway &, Union Ave, Brooklyn, NY 11206, USA","Broadway","None","Union Avenue","11206","Brooklyn","Kings County","New York","United States",40.7055238,-73.9500956,"['establishment', 'point_of_interest', 'subway_station', 'transit_station']","Brooklyn-Queens Crosstown(G)","Queen-Brooklyn"
"217","BROADWAY","NW","BROADWAY subway station Line NW, New York","8 Street Station, New York, NY 10003, USA","8 Street Station","None","None","10003","Manhattan","New York County","New York","United States",40.7306579,-73.9923894,"['establishment', 'point_of_interest', 'subway_station', 'transit_station']","Broadway(NQRW)","Lower Manhattan"
"218","BROADWAY JCT","ACJLZ","BROADWAY JCT subway station Line ACJLZ, New York","Broadway Junction, Brooklyn, NY 11207, USA","Broadway Junction","None","None","11207","Brooklyn","Kings County","New York","United States",40.6792814,-73.9040773,"['establishment', 'point_of_interest', 'subway_station', 'transit_station']","8 Avenue(ACE)","Queen-Brooklyn"
"219","BRONX PARK EAST","25","BRONX PARK EAST subway station Line 25, New York","Bronx Park East Station, Bronx, NY 10462, USA","Bronx Park East Station","None","None","10462","Bronx","Bronx County","New York","United States",40.848986,-73.8683877,"['establishment', 'point_of_interest', 'subway_station', 'transit_station']","7 Avenue(123)","Bronx"
"220","BROOK AV","6","BROOK AV subway station Line 6, New York","Brook Av, Bronx, NY 10454, USA","Brook Av","None","None","10454","Bronx","Bronx County","New York","United States",40.8074603,-73.9192015,"['establishment', 'point_of_interest', 'subway_station', 'transit_station']","Lexington Av(456)","Upper Manhattan"
"221","BROOKLYN BRIDGE","456","BROOKLYN BRIDGE subway station Line 456, New York","Brooklyn Bridge - City Hall, New York, NY 10013, USA","Brooklyn Bridge - City Hall","None","None","10013","Manhattan","New York County","New York","United States",40.7128218,-74.0042836,"['establishment', 'point_of_interest', 'subway_station', 'transit_station']","Lexington Av(456)","Lower Manhattan"
"222","BUHRE AV","6","BUHRE AV subway station Line 6, New York","Buhre Avenue Station, Bronx, NY 10461, USA","Buhre Avenue Station","None","None","10461","Bronx","Bronx County","New York","United States",40.8469121,-73.8323569,"['establishment', 'point_of_interest', 'subway_station', 'transit_station']","Lexington Av(456)","Bronx"
"223","BURKE AV","25","BURKE AV subway station Line 25, New York","Burke Av Station, Bronx, NY 10467, USA","Burke Av Station","None","None","10467","Bronx","Bronx County","New York","United States",40.8714516,-73.8670726,"['establishment', 'point_of_interest', 'subway_station', 'transit_station']","7 Avenue(123)","Bronx"
"224","BURNSIDE AV","4","BURNSIDE AV subway station Line 4, New York","Burnside Avenue, Bronx, NY 10453, USA","Burnside Avenue","None","None","10453","Bronx","Bronx County","New York","United States",40.853455,-73.907684,"['establishment', 'point_of_interest', 'subway_station', 'transit_station']","Lexington Av(456)","Upper Manhattan"
"225","BUSHWICK AV","L","BUSHWICK AV subway station Line L, New York","Morgan Av, Brooklyn, NY 11237, USA","Morgan Av","None","None","11237","Brooklyn","Kings County","New York","United States",40.7060759,-73.93371,"['establishment', 'point_of_interest', 'subway_station', 'transit_station']","14 St-Canarsie(L)","Queen-Brooklyn"
"226","CANAL ST","1","CANAL ST subway station Line 1, New York","Canal St, New York, NY 10013, USA","Canal St","None","None","10013","Manhattan","New York County","New York","United States",40.719528,-74.001778,"['establishment', 'point_of_interest', 'subway_station', 'transit_station']","7 Avenue(123)","Lower Manhattan"
"227","CANAL ST","6JNQRWZ","CANAL ST subway station Line 6JNQRWZ, New York","Canal St, New York, NY 10013, USA","Canal St","None","None","10013","Manhattan","New York County","New York","United States",40.719528,-74.001778,"['establishment', 'point_of_interest', 'subway_station', 'transit_station']","Broadway(NQRW)","Lower Manhattan"
"228","CANAL ST","ACE","CANAL ST subway station Line ACE, New York","Canal St, New York, NY 10013, USA","Canal St","None","None","10013","Manhattan","New York County","New York","United States",40.719528,-74.001778,"['establishment', 'point_of_interest', 'subway_station', 'transit_station']","8 Avenue(ACE)","Lower Manhattan"
"229","CANARSIE-ROCKAW","L","CANARSIE-ROCKAW subway station Line L, New York","Canarsie-Rockaway Pkwy, Brooklyn, NY 11236, USA","Canarsie-Rockaway Pkwy","None","None","11236","Brooklyn","Kings County","New York","United States",40.645567,-73.9025641,"['establishment', 'point_of_interest', 'subway_station', 'transit_station']","14 St-Canarsie(L)","Queen-Brooklyn"
"230","CARROLL ST","FG","CARROLL ST subway station Line FG, New York","Carroll St, Smith St, Brooklyn, NY 11231, USA","Carroll St","None","Smith Street","11231","Brooklyn","Kings County","New York","United States",40.6793313,-73.9954833,"['establishment', 'point_of_interest', 'subway_station', 'transit_station']","6 Avenue(BDFM)","Lower Manhattan"
"231","CASTLE HILL AV","6","CASTLE HILL AV subway station Line 6, New York","Castle Hill Av, Bronx, NY 10462, USA","Castle Hill Av","None","None","10462","Bronx","Bronx County","New York","United States",40.834296,-73.851684,"['establishment', 'point_of_interest', 'subway_station', 'transit_station']","Lexington Av(456)","Bronx"
"232","CATHEDRAL PKWY","1","CATHEDRAL PKWY subway station Line 1, New York","Cathedral Parkway 110 Street, New York, NY 10025, USA","Cathedral Parkway 110 Street","None","None","10025","Manhattan","New York County","New York","United States",40.8041795,-73.9667097,"['establishment', 'point_of_interest', 'subway_station', 'transit_station']","7 Avenue(123)","Middle Manhattan"
"233","CATHEDRAL PKWY","BC","CATHEDRAL PKWY subway station Line BC, New York","Cathedral Pkwy, New York, NY 10026, USA","Cathedral Pkwy","None","None","10026","Manhattan","New York County","New York","United States",40.8008803,-73.958392,"['establishment', 'point_of_interest', 'subway_station', 'transit_station']","8 Avenue(ACE)","Middle Manhattan"
"234","CENTRAL AV","M","CENTRAL AV subway station Line M, New York","Central Avenue Station, Brooklyn, NY 11221, USA","Central Avenue Station","None","None","11221","Brooklyn","Kings County","New York","United States",40.6978289,-73.9273632,"['establishment', 'point_of_interest', 'subway_station', 'transit_station']","6 Avenue(BDFM)","Queen-Brooklyn"
"235","CENTRAL PK N110","23","CENTRAL PK N110 subway station Line 23, New York","Central Park N, New York, NY, USA","None","None","Central Park North","None","Manhattan","New York County","New York","United States",40.7992147,-73.954758,"['route']","7 Avenue(123)","Middle Manhattan"
"236","CHAMBERS ST","123","CHAMBERS ST subway station Line 123, New York","Chambers St, New York, NY 10013, USA","Chambers St","None","None","10013","Manhattan","New York County","New York","United States",40.7155939,-74.009197,"['establishment', 'point_of_interest', 'subway_station', 'transit_station']","7 Avenue(123)","Lower Manhattan"
"237","CHAMBERS ST","23ACE","CHAMBERS ST subway station Line 23ACE, New York","Chambers St, New York, NY 10013, USA","Chambers St","None","None","10013","Manhattan","New York County","New York","United States",40.7155939,-74.009197,"['establishment', 'point_of_interest', 'subway_station', 'transit_station']","8 Avenue(ACE)","Lower Manhattan"
"238","CHAMBERS ST","456JZ","CHAMBERS ST subway station Line 456JZ, New York","Chambers St, New York, NY 10013, USA","Chambers St","None","None","10013","Manhattan","New York County","New York","United States",40.7155939,-74.009197,"['establishment', 'point_of_interest', 'subway_station', 'transit_station']","Lexington Av(456)","Lower Manhattan"
"239","CHAUNCEY ST","JZ","CHAUNCEY ST subway station Line JZ, New York","Chauncey Street Station, Brooklyn, NY 11207, USA","Chauncey Street Station","None","None","11207","Brooklyn","Kings County","New York","United States",40.682892,-73.910454,"['establishment', 'point_of_interest', 'subway_station', 'transit_station']","8 Avenue(ACE)","Queen-Brooklyn"
"240","CHRISTOPHER ST","1","CHRISTOPHER ST subway station Line 1, New York","Christopher St Station, New York, NY 10014, USA","Christopher St Station","None","None","10014","Manhattan","New York County","New York","United States",40.7335784,-74.0028728,"['establishment', 'point_of_interest', 'subway_station', 'transit_station']","7 Avenue(123)","Lower Manhattan"
"241","CHURCH AV","25","CHURCH AV subway station Line 25, New York","Church Av, Brooklyn, NY 11218, USA","Church Av","None","None","11218","Brooklyn","Kings County","New York","United States",40.6436845,-73.9796075,"['establishment', 'point_of_interest', 'subway_station', 'transit_station']","7 Avenue(123)","Brooklyn"
"242","CHURCH AV","BQ","CHURCH AV subway station Line BQ, New York","Church Av, Church Ave, Brooklyn, NY 11226, USA","Church Av","None","Church Avenue","11226","Brooklyn","Kings County","New York","United States",40.6495233,-73.9632839,"['establishment', 'point_of_interest', 'subway_station', 'transit_station']","6 Avenue(BDFM)","Brooklyn"
"243","CHURCH AV","FG","CHURCH AV subway station Line FG, New York","Church Av, Brooklyn, NY 11218, USA","Church Av","None","None","11218","Brooklyn","Kings County","New York","United States",40.6436845,-73.9796075,"['establishment', 'point_of_interest', 'subway_station', 'transit_station']","6 Avenue(BDFM)","Brooklyn"
"244","CITY / BUS","1","CITY / BUS subway station Line 1, New York","1 Stone St, New York, NY 10004, USA","None","1","Stone Street","10004","Manhattan","New York County","New York","United States",40.7035598,-74.0131149,"['establishment', 'point_of_interest']","7 Avenue(123)","Lower Manhattan"
"245","CITY HALL","NRW","CITY HALL subway station Line NRW, New York","Brooklyn Bridge - City Hall, New York, NY 10013, USA","Brooklyn Bridge - City Hall","None","None","10013","Manhattan","New York County","New York","United States",40.7128218,-74.0042836,"['establishment', 'point_of_interest', 'subway_station', 'transit_station']","Broadway(NQRW)","Lower Manhattan"
"246","CLARK ST","23","CLARK ST subway station Line 23, New York","Clark St, Brooklyn, NY 11201, USA","Clark St","None","None","11201","Brooklyn","Kings County","New York","United States",40.697468,-73.993088,"['establishment', 'point_of_interest', 'subway_station', 'transit_station']","7 Avenue(123)","Lower Manhattan"
"247","CLASSON AV","G","CLASSON AV subway station Line G, New York","Classon Av, Brooklyn, NY 11238, USA","Classon Av","None","None","11238","Brooklyn","Kings County","New York","United States",40.6888909,-73.9600007,"['establishment', 'point_of_interest', 'subway_station', 'transit_station']","Brooklyn-Queens Crosstown(G)","Queen-Brooklyn"
"248","CLEVELAND ST","J","CLEVELAND ST subway station Line J, New York","Cleveland St, Brooklyn, NY 11208, USA","Cleveland St","None","None","11208","Brooklyn","Kings County","New York","United States",40.679947,-73.884636,"['establishment', 'point_of_interest', 'subway_station', 'transit_station']","8 Avenue(ACE)","Queen-Brooklyn"
"249","CLINTON-WASH AV","C","CLINTON-WASH AV subway station Line C, New York","Clinton-Washington Avs, Brooklyn, NY 11238, USA","Clinton-Washington Avs","None","None","11238","Brooklyn","Kings County","New York","United States",40.6835432,-73.9668165,"['establishment', 'point_of_interest', 'subway_station', 'transit_station']","8 Avenue(ACE)","Queen-Brooklyn"
"250","CLINTON-WASH AV","G","CLINTON-WASH AV subway station Line G, New York","Clinton-Washington Avs, Brooklyn, NY 11238, USA","Clinton-Washington Avs","None","None","11238","Brooklyn","Kings County","New York","United States",40.6835432,-73.9668165,"['establishment', 'point_of_interest', 'subway_station', 'transit_station']","Brooklyn-Queens Crosstown(G)","Queen-Brooklyn"
"251","CONEY IS-STILLW","DFNQ","CONEY IS-STILLW subway station Line DFNQ, New York","Coney Island - Stillwell Av, Stillwell Ave, Brooklyn, NY 11224, USA","Coney Island - Stillwell Av","None","Stillwell Avenue","11224","Brooklyn","Kings County","New York","United States",40.5772735,-73.9812295,"['establishment', 'point_of_interest', 'subway_station', 'transit_station']","6 Avenue(BDFM)","Brooklyn"
"252","CORTELYOU RD","BQ","CORTELYOU RD subway station Line BQ, New York","Cortelyou Road, Cortelyou Rd, Brooklyn, NY 11226, USA","Cortelyou Road","None","Cortelyou Road","11226","Brooklyn","Kings County","New York","United States",40.6412697,-73.9639694,"['establishment', 'point_of_interest', 'subway_station', 'transit_station']","6 Avenue(BDFM)","Brooklyn"
"253","CORTLANDT ST","NRW","CORTLANDT ST subway station Line NRW, New York","Cortlandt St, New York, NY 10007, USA","Cortlandt St","None","None","10007","Manhattan","New York County","New York","United States",40.7110056,-74.010763,"['establishment', 'point_of_interest', 'subway_station', 'transit_station']","Broadway(NQRW)","Lower Manhattan"
"254","COURT SQ","7","COURT SQ subway station Line 7, New York","Court Square Station, Queens, NY 11101, USA","Court Square Station","None","None","11101","Queens","Queens County","New York","United States",40.7463277,-73.9456197,"['establishment', 'point_of_interest', 'subway_station', 'transit_station']","Flushing(7)","Middle Manhattan"
"255","COURT SQ","EGM","COURT SQ subway station Line EGM, New York","Court Square Station, Queens, NY 11101, USA","Court Square Station","None","None","11101","Queens","Queens County","New York","United States",40.7463277,-73.9456197,"['establishment', 'point_of_interest', 'subway_station', 'transit_station']","8 Avenue(ACE)","Middle Manhattan"
"256","COURT SQ-23 ST","EM","COURT SQ-23 ST subway station Line EM, New York","Court Square-23 St, Queens, NY 11101, USA","Court Square-23 St","None","None","11101","Queens","Queens County","New York","United States",40.7480508,-73.9470478,"['establishment', 'point_of_interest', 'subway_station', 'transit_station']","8 Avenue(ACE)","Middle Manhattan"
"257","CRESCENT ST","JZ","CRESCENT ST subway station Line JZ, New York","Crescent St, Brooklyn, NY 11208, USA","Crescent St","None","None","11208","Brooklyn","Kings County","New York","United States",40.6834641,-73.872933,"['establishment', 'point_of_interest', 'subway_station', 'transit_station']","8 Avenue(ACE)","Queen"
"258","CROWN HTS-UTICA","34","CROWN HTS-UTICA subway station Line 34, New York","Utica Avenue, Utica Ave, Brooklyn, NY 11213, USA","Utica Avenue","None","Utica Avenue","11213","Brooklyn","Kings County","New York","United States",40.668934,-73.9318454,"['establishment', 'point_of_interest', 'subway_station', 'transit_station']","7 Avenue(123)","Queen-Brooklyn"
"259","CYPRESS AV","6","CYPRESS AV subway station Line 6, New York","Cypress Av, Bronx, NY 10454, USA","Cypress Av","None","None","10454","Bronx","Bronx County","New York","United States",40.8052426,-73.9137116,"['establishment', 'point_of_interest', 'subway_station', 'transit_station']","Lexington Av(456)","Upper Manhattan"
"260","CYPRESS HILLS","J","CYPRESS HILLS subway station Line J, New York","Cypress Hills, Brooklyn, NY 11208, USA","Cypress Hills","None","None","11208","Brooklyn","Kings County","New York","United States",40.689941,-73.872551,"['establishment', 'point_of_interest', 'subway_station', 'transit_station']","8 Avenue(ACE)","Queen"
"261","DEKALB AV","BDNQR","DEKALB AV subway station Line BDNQR, New York","DeKalb Av, Brooklyn, NY 11217, USA","DeKalb Av","None","None","11217","Brooklyn","Kings County","New York","United States",40.6897548,-73.9811407,"['establishment', 'point_of_interest', 'subway_station', 'transit_station']","Broadway(NQRW)","Lower Manhattan"
"262","DEKALB AV","L","DEKALB AV subway station Line L, New York","DeKalb Av, Brooklyn, NY 11217, USA","DeKalb Av","None","None","11217","Brooklyn","Kings County","New York","United States",40.6897548,-73.9811407,"['establishment', 'point_of_interest', 'subway_station', 'transit_station']","14 St-Canarsie(L)","Lower Manhattan"
"263","DELANCEY/ESSEX","FJMZ","DELANCEY/ESSEX subway station Line FJMZ, New York","Delancey St  Essex St, New York, NY 10002, USA","Delancey St  Essex St","None","None","10002","Manhattan","New York County","New York","United States",40.7185592,-73.9881894,"['establishment', 'point_of_interest', 'subway_station', 'transit_station']","6 Avenue(BDFM)","Lower Manhattan"
"264","DITMAS AV","F","DITMAS AV subway station Line F, New York","Ditmas Av, Brooklyn, NY 11218, USA","Ditmas Av","None","None","11218","Brooklyn","Kings County","New York","United States",40.635536,-73.9781422,"['establishment', 'point_of_interest', 'subway_station', 'transit_station']","6 Avenue(BDFM)","Brooklyn"
"265","DYCKMAN ST","1","DYCKMAN ST subway station Line 1, New York","Dyckman St, New York, NY 10034, USA","Dyckman St","None","None","10034","Manhattan","New York County","New York","United States",40.8655826,-73.9268413,"['establishment', 'point_of_interest', 'subway_station', 'transit_station']","7 Avenue(123)","Upper Manhattan"
"266","DYCKMAN ST","A","DYCKMAN ST subway station Line A, New York","Dyckman St, New York, NY 10034, USA","Dyckman St","None","None","10034","Manhattan","New York County","New York","United States",40.8655826,-73.9268413,"['establishment', 'point_of_interest', 'subway_station', 'transit_station']","8 Avenue(ACE)","Upper Manhattan"
"267","E 143/ST MARY'S","6","E 143/ST MARY'S subway station Line 6, New York","E 143 St - St Mary's St, Bronx, NY 10454, USA","E 143 St - St Mary's St","None","None","10454","Bronx","Bronx County","New York","United States",40.8080096,-73.9077472,"['establishment', 'point_of_interest', 'subway_station', 'transit_station']","Lexington Av(456)","Upper Manhattan"
"268","E 149 ST","6","E 149 ST subway station Line 6, New York","E 149 St Station, Bronx, NY 10455, USA","E 149 St Station","None","None","10455","Bronx","Bronx County","New York","United States",40.812119,-73.904099,"['establishment', 'point_of_interest', 'subway_station', 'transit_station']","Lexington Av(456)","Upper Manhattan"
"269","E 180 ST","25","E 180 ST subway station Line 25, New York","East 180 Street, Bronx, NY 10460, USA","East 180 Street","None","None","10460","Bronx","Bronx County","New York","United States",40.841892,-73.873489,"['establishment', 'point_of_interest', 'subway_station', 'transit_station']","7 Avenue(123)","Bronx"
"270","EAST 105 ST","L","EAST 105 ST subway station Line L, New York","East 105 St, Brooklyn, NY 11236, USA","East 105 St","None","None","11236","Brooklyn","Kings County","New York","United States",40.6513735,-73.8990028,"['establishment', 'point_of_interest', 'subway_station', 'transit_station']","14 St-Canarsie(L)","Queen-Brooklyn"
"271","EAST BROADWAY","F","EAST BROADWAY subway station Line F, New York","East Broadway, New York, NY 10002, USA","East Broadway","None","None","10002","Manhattan","New York County","New York","United States",40.7144029,-73.9899161,"['establishment', 'point_of_interest', 'subway_station', 'transit_station']","6 Avenue(BDFM)","Lower Manhattan"
"272","EASTCHSTER/DYRE","5","EASTCHSTER/DYRE subway station Line 5, New York","Eastchester - Dyre Av, Bronx, NY 10466, USA","Eastchester - Dyre Av","None","None","10466","Bronx","Bronx County","New York","United States",40.8879338,-73.8310706,"['establishment', 'point_of_interest', 'subway_station', 'transit_station']","Lexington Av(456)","Bronx"
"273","EASTN PKWY-MUSM","23","EASTN PKWY-MUSM subway station Line 23, New York","Eastern Pkwy Brooklyn Museum, Brooklyn, NY 11238, USA","Eastern Pkwy Brooklyn Museum","None","None","11238","Brooklyn","Kings County","New York","United States",40.6719938,-73.9642065,"['establishment', 'point_of_interest', 'subway_station', 'transit_station']","7 Avenue(123)","Queen-Brooklyn"
"274","ELDER AV","6","ELDER AV subway station Line 6, New York","Elder Av, Elder Ave &, Westchester Ave, Bronx, NY 10472, USA","Elder Av","None","Westchester Avenue","10472","Bronx","Bronx County","New York","United States",40.828583,-73.879158,"['establishment', 'point_of_interest', 'subway_station', 'transit_station']","Lexington Av(456)","Bronx"
"275","ELMHURST AV","MR","ELMHURST AV subway station Line MR, New York","Elmhurst Av, Elmhurst Ave, Queens, NY 11373, USA","Elmhurst Av","None","Elmhurst Avenue","11373","Queens","Queens County","New York","United States",40.7424479,-73.8819844,"['establishment', 'point_of_interest', 'subway_station', 'transit_station']","6 Avenue(BDFM)","Queen"
"276","EUCLID AV","AC","EUCLID AV subway station Line AC, New York","Euclid Av, Brooklyn, NY 11208, USA","Euclid Av","None","None","11208","Brooklyn","Kings County","New York","United States",40.6754013,-73.8719033,"['establishment', 'point_of_interest', 'subway_station', 'transit_station']","8 Avenue(ACE)","Queen"
"277","FAR ROCKAWAY","A","FAR ROCKAWAY subway station Line A, New York","Far Rockaway - Mott Av, Queens, NY 11691, USA","Far Rockaway - Mott Av","None","None","11691","Queens","Queens County","New York","United States",40.6042178,-73.7549998,"['establishment', 'point_of_interest', 'subway_station', 'transit_station']","8 Avenue(ACE)","Rockaway Beach"
"278","FLATBUSH AV-B.C","25","FLATBUSH AV-B.C subway station Line 25, New York","Flatbush Ave, Brooklyn, NY, USA","None","None","Flatbush Avenue","None","Brooklyn","Kings County","New York","United States",40.6459145,-73.9580258,"['route']","7 Avenue(123)","Brooklyn"
"279","FLUSHING-MAIN","7","FLUSHING-MAIN subway station Line 7, New York","Main St, Queens, NY 11354, USA","Main St","None","None","11354","Queens","Queens County","New York","United States",40.7595582,-73.8299221,"['establishment', 'point_of_interest', 'subway_station', 'transit_station']","Flushing(7)","Queen"
"280","FLUSHING AV","G","FLUSHING AV subway station Line G, New York","Flushing Av, Brooklyn, NY 11206, USA","Flushing Av","None","None","11206","Brooklyn","Kings County","New York","United States",40.6997972,-73.9500581,"['establishment', 'point_of_interest', 'subway_station', 'transit_station']","Brooklyn-Queens Crosstown(G)","Queen-Brooklyn"
"281","FLUSHING AV","JM","FLUSHING AV subway station Line JM, New York","Flushing Av, Flushing Ave, Brooklyn, NY 11206, USA","Flushing Av","None","Flushing Avenue","11206","Brooklyn","Kings County","New York","United States",40.7003285,-73.9412453,"['establishment', 'point_of_interest', 'subway_station', 'transit_station']","6 Avenue(BDFM)","Queen-Brooklyn"
"282","FORDHAM RD","4","FORDHAM RD subway station Line 4, New York","Fordham Rd, Jerome Ave, Bronx, NY 10468, USA","Fordham Rd","None","Jerome Avenue","10468","Bronx","Bronx County","New York","United States",40.8628946,-73.9010935,"['establishment', 'point_of_interest', 'subway_station', 'transit_station']","Lexington Av(456)","Bronx"
"283","FORDHAM RD","BD","FORDHAM RD subway station Line BD, New York","Fordham Rd, Bronx, NY 10458, USA","Fordham Rd","None","None","10458","Bronx","Bronx County","New York","United States",40.8613635,-73.897716,"['establishment', 'point_of_interest', 'subway_station', 'transit_station']","6 Avenue(BDFM)","Bronx"
"284","FOREST AVE","M","FOREST AVE subway station Line M, New York","Forest Av, Queens, NY 11385, USA","Forest Av","None","None","11385","Queens","Queens County","New York","United States",40.704422,-73.903076,"['establishment', 'point_of_interest', 'subway_station', 'transit_station']","6 Avenue(BDFM)","Queen-Brooklyn"
"285","FOREST HILLS 71","EFMR","FOREST HILLS 71 subway station Line EFMR, New York","Forest Hills-71 Av, Queens, NY 11375, USA","Forest Hills-71 Av","None","None","11375","Queens","Queens County","New York","United States",40.7215132,-73.8447683,"['establishment', 'point_of_interest', 'subway_station', 'transit_station']","6 Avenue(BDFM)","Queen"
"286","FRANKLIN AV","2345","FRANKLIN AV subway station Line 2345, New York","Franklin Av-Medgar Evers College, Brooklyn, NY 11225, USA","Franklin Av-Medgar Evers College","None","None","11225","Brooklyn","Kings County","New York","United States",40.670681,-73.95813,"['establishment', 'point_of_interest', 'subway_station', 'transit_station']","7 Avenue(123)","Queen-Brooklyn"
"287","FRANKLIN AV","CS","FRANKLIN AV subway station Line CS, New York","Franklin Av-Medgar Evers College, Brooklyn, NY 11225, USA","Franklin Av-Medgar Evers College","None","None","11225","Brooklyn","Kings County","New York","United States",40.670681,-73.95813,"['establishment', 'point_of_interest', 'subway_station', 'transit_station']","8 Avenue(ACE)","Queen-Brooklyn"
"288","FRANKLIN ST","1","FRANKLIN ST subway station Line 1, New York","Franklin Street Station, New York, NY 10013, USA","Franklin Street Station","None","None","10013","Manhattan","New York County","New York","United States",40.7190006,-74.0066793,"['establishment', 'point_of_interest', 'subway_station', 'transit_station']","7 Avenue(123)","Lower Manhattan"
"289","FREEMAN ST","25","FREEMAN ST subway station Line 25, New York","Freeman St, Bronx, NY 10459, USA","Freeman St","None","None","10459","Bronx","Bronx County","New York","United States",40.8301745,-73.8917088,"['establishment', 'point_of_interest', 'subway_station', 'transit_station']","7 Avenue(123)","Upper Manhattan"
"290","FRESH POND RD","M","FRESH POND RD subway station Line M, New York","Fresh Pond Rd, 66-99 Fresh Pond Rd, Queens, NY 11385, USA","Fresh Pond Rd","66-99","Fresh Pond Road","11385","Queens","Queens County","New York","United States",40.706231,-73.895939,"['establishment', 'point_of_interest', 'subway_station', 'transit_station']","6 Avenue(BDFM)","Queen-Brooklyn"
"291","FT HAMILTON PKY","D","FT HAMILTON PKY subway station Line D, New York","Fort Hamilton Pkwy, Fort Hamilton Pkwy, Brooklyn, NY 11219, USA","Fort Hamilton Pkwy","None","Fort Hamilton Parkway","11219","Brooklyn","Kings County","New York","United States",40.640915,-73.994301,"['establishment', 'point_of_interest', 'subway_station', 'transit_station']","6 Avenue(BDFM)","Brooklyn"
"292","FT HAMILTON PKY","FG","FT HAMILTON PKY subway station Line FG, New York","Fort Hamilton Parkway Station, Fort Hamilton Pkwy, Brooklyn, NY 11218, USA","Fort Hamilton Parkway Station","None","Fort Hamilton Parkway","11218","Brooklyn","Kings County","New York","United States",40.6497808,-73.9757703,"['establishment', 'point_of_interest', 'subway_station', 'transit_station']","6 Avenue(BDFM)","Brooklyn"
"293","FT HAMILTON PKY","N","FT HAMILTON PKY subway station Line N, New York","Fort Hamilton Parkway Station, Fort Hamilton Pkwy, Brooklyn, NY 11218, USA","Fort Hamilton Parkway Station","None","Fort Hamilton Parkway","11218","Brooklyn","Kings County","New York","United States",40.6497808,-73.9757703,"['establishment', 'point_of_interest', 'subway_station', 'transit_station']","Broadway(NQRW)","Brooklyn"
"294","FULTON ST","2345ACJZ","FULTON ST subway station Line 2345ACJZ, New York","Fulton Street Subway Station, Fulton Street between Broadway &, Nassau St, New York, NY 10007, USA","Fulton Street Subway Station","None","Nassau Street","10007","Manhattan","New York County","New York","United States",40.7093627,-74.0084614,"['establishment', 'point_of_interest', 'subway_station', 'transit_station']","8 Avenue(ACE)","Lower Manhattan"
"295","FULTON ST","G","FULTON ST subway station Line G, New York","Fulton St, Fulton St, Brooklyn, NY 11217, USA","Fulton St","None","Fulton Street","11217","Brooklyn","Kings County","New York","United States",40.6870915,-73.9755609,"['establishment', 'point_of_interest', 'subway_station', 'transit_station']","Brooklyn-Queens Crosstown(G)","Lower Manhattan"
"296","GATES AV","JZ","GATES AV subway station Line JZ, New York","Gates Av, Brooklyn, NY 11221, USA","Gates Av","None","None","11221","Brooklyn","Kings County","New York","United States",40.6896184,-73.9222369,"['establishment', 'point_of_interest', 'subway_station', 'transit_station']","8 Avenue(ACE)","Queen-Brooklyn"
"297","GRAHAM AV","L","GRAHAM AV subway station Line L, New York","Graham Av, Brooklyn, NY 11211, USA","Graham Av","None","None","11211","Brooklyn","Kings County","New York","United States",40.7145263,-73.9443818,"['establishment', 'point_of_interest', 'subway_station', 'transit_station']","14 St-Canarsie(L)","Queen-Brooklyn"
"298","GRAND-NEWTOWN","MR","GRAND-NEWTOWN subway station Line MR, New York","Grand Av - Newtown, Grand Ave, Queens, NY 11373, USA","Grand Av - Newtown","None","Grand Avenue","11373","Queens","Queens County","New York","United States",40.7370102,-73.8783366,"['establishment', 'point_of_interest', 'subway_station', 'transit_station']","6 Avenue(BDFM)","Queen"
"299","GRAND ARMY PLAZ","23","GRAND ARMY PLAZ subway station Line 23, New York","Grand Army Plaza, Brooklyn, NY 11238, USA","Grand Army Plaza","None","None","11238","Brooklyn","Kings County","New York","United States",40.675236,-73.971046,"['establishment', 'point_of_interest', 'subway_station', 'transit_station']","7 Avenue(123)","Queen-Brooklyn"
"300","GRAND ST","BD","GRAND ST subway station Line BD, New York","Grand St, New York, NY 10002, USA","Grand St","None","None","10002","Manhattan","New York County","New York","United States",40.7182077,-73.9935751,"['establishment', 'point_of_interest', 'subway_station', 'transit_station']","6 Avenue(BDFM)","Lower Manhattan"
"301","GRAND ST","L","GRAND ST subway station Line L, New York","Grand Street Station, Brooklyn, NY 11211, USA","Grand Street Station","None","None","11211","Brooklyn","Kings County","New York","United States",40.71191,-73.9404554,"['establishment', 'point_of_interest', 'subway_station', 'transit_station']","14 St-Canarsie(L)","Queen-Brooklyn"
"302","GRANT AV","A","GRANT AV subway station Line A, New York","Grant Av, Brooklyn, NY 11208, USA","Grant Av","None","None","11208","Brooklyn","Kings County","New York","United States",40.6768777,-73.8653462,"['establishment', 'point_of_interest', 'subway_station', 'transit_station']","8 Avenue(ACE)","Queen"
"303","GRD CNTRL-42 ST","4567S","GRD CNTRL-42 ST subway station Line 4567S, New York","Grand Central - 42 St, New York, NY 10017, USA","Grand Central - 42 St","None","None","10017","Manhattan","New York County","New York","United States",40.7524688,-73.9774869,"['establishment', 'point_of_interest', 'subway_station', 'transit_station']","Lexington Av(456)","Middle Manhattan"
"304","GREENPOINT AV","G","GREENPOINT AV subway station Line G, New York","Greenpoint Av, Greenpoint Ave, Brooklyn, NY 11222, USA","Greenpoint Av","None","Greenpoint Avenue","11222","Brooklyn","Kings County","New York","United States",40.7301618,-73.9540458,"['establishment', 'point_of_interest', 'subway_station', 'transit_station']","Brooklyn-Queens Crosstown(G)","Middle Manhattan"
"305","GROVE STREET","1","GROVE STREET subway station Line 1, New York","Grove St, New York, NY 10014, USA","None","None","Grove Street","10014","Manhattan","New York County","New York","United States",40.7329892,-74.0037707,"['route']","7 Avenue(123)","Lower Manhattan"
"306","GUN HILL RD","25","GUN HILL RD subway station Line 25, New York","Gun Hill Rd, Bronx, NY 10467, USA","Gun Hill Rd","None","None","10467","Bronx","Bronx County","New York","United States",40.8777392,-73.8663046,"['establishment', 'point_of_interest', 'subway_station', 'transit_station']","7 Avenue(123)","Bronx"
"307","GUN HILL RD","5","GUN HILL RD subway station Line 5, New York","Gun Hill Rd, Bronx, NY 10467, USA","Gun Hill Rd","None","None","10467","Bronx","Bronx County","New York","United States",40.8777392,-73.8663046,"['establishment', 'point_of_interest', 'subway_station', 'transit_station']","Lexington Av(456)","Bronx"
"308","HALSEY ST","J","HALSEY ST subway station Line J, New York","Halsey St, Brooklyn, NY, USA","Halsey St","None","None","None","Brooklyn","Kings County","New York","United States",40.6863105,-73.9165454,"['establishment', 'point_of_interest', 'transit_station']","8 Avenue(ACE)","Queen-Brooklyn"
"309","HALSEY ST","L","HALSEY ST subway station Line L, New York","Halsey St, Brooklyn, NY 11237, USA","Halsey St","None","None","11237","Brooklyn","Kings County","New York","United States",40.6959098,-73.9051201,"['establishment', 'point_of_interest', 'subway_station', 'transit_station']","14 St-Canarsie(L)","Queen-Brooklyn"
"310","HARLEM 148 ST","3","HARLEM 148 ST subway station Line 3, New York","Harlem / 148 St, New York, NY 10039, USA","Harlem / 148 St","None","None","10039","Manhattan","New York County","New York","United States",40.8240504,-73.9369385,"['establishment', 'point_of_interest', 'subway_station', 'transit_station']","7 Avenue(123)","Upper Manhattan"
"311","HARRISON","1","HARRISON subway station Line 1, New York","Harrison, 913 Frank E Rodgers Blvd S, Harrison, NJ 07029, USA","Harrison","913","Frank E Rodgers Boulevard South","07029","None","Hudson County","New Jersey","United States",40.73942,-74.15587,"['establishment', 'point_of_interest', 'train_station', 'transit_station']","7 Avenue(123)",NA
"312","HEWES ST","JM","HEWES ST subway station Line JM, New York","Hewes St, Brooklyn, NY 11211, USA","Hewes St","None","None","11211","Brooklyn","Kings County","New York","United States",40.7068229,-73.953427,"['establishment', 'point_of_interest', 'subway_station', 'transit_station']","6 Avenue(BDFM)","Queen-Brooklyn"
"313","HIGH ST","AC","HIGH ST subway station Line AC, New York","High St, Brooklyn, NY 11201, USA","High St","None","None","11201","Brooklyn","Kings County","New York","United States",40.6989816,-73.9912359,"['establishment', 'point_of_interest', 'subway_station', 'transit_station']","8 Avenue(ACE)","Lower Manhattan"
"314","HOUSTON ST","1","HOUSTON ST subway station Line 1, New York","Houston St, W Houston St, New York, NY 10014, USA","Houston St","None","West Houston Street","10014","Manhattan","New York County","New York","United States",40.7286024,-74.0053168,"['establishment', 'point_of_interest', 'subway_station', 'transit_station']","7 Avenue(123)","Lower Manhattan"
"315","HOWARD BCH JFK","A","HOWARD BCH JFK subway station Line A, New York","Howard Beach - JFK Subway Station, Queens, NY 11414, USA","Howard Beach - JFK Subway Station","None","None","11414","Queens","Queens County","New York","United States",40.6604192,-73.8302715,"['establishment', 'point_of_interest', 'subway_station', 'transit_station']","8 Avenue(ACE)","Queen"
"316","HOYT-SCHER","ACG","HOYT-SCHER subway station Line ACG, New York","Hoyt - Schermerhorn Streets, Brooklyn, NY 11201, USA","Hoyt - Schermerhorn Streets","None","None","11201","Brooklyn","Kings County","New York","United States",40.6889951,-73.9857646,"['establishment', 'point_of_interest', 'subway_station', 'transit_station']","8 Avenue(ACE)","Lower Manhattan"
"317","HOYT ST","23","HOYT ST subway station Line 23, New York","Hoyt St, Brooklyn, NY 11201, USA","Hoyt St","None","None","11201","Brooklyn","Kings County","New York","United States",40.6905349,-73.9850204,"['establishment', 'point_of_interest', 'subway_station', 'transit_station']","7 Avenue(123)","Lower Manhattan"
"318","HUNTERS PT AV","7","HUNTERS PT AV subway station Line 7, New York","Hunters Point Avenue, Queens, NY 11101, USA","Hunters Point Avenue","None","None","11101","Queens","Queens County","New York","United States",40.7424176,-73.9481564,"['establishment', 'point_of_interest', 'subway_station', 'transit_station']","Flushing(7)","Middle Manhattan"
"319","HUNTS POINT AV","6","HUNTS POINT AV subway station Line 6, New York","Hunts Point Av, Bronx, NY 10474, USA","Hunts Point Av","None","None","10474","Bronx","Bronx County","New York","United States",40.8208037,-73.8908812,"['establishment', 'point_of_interest', 'subway_station', 'transit_station']","Lexington Av(456)","Upper Manhattan"
"320","INTERVALE AV","25","INTERVALE AV subway station Line 25, New York","Intervale Av, Bronx, NY 10459, USA","Intervale Av","None","None","10459","Bronx","Bronx County","New York","United States",40.8222642,-73.8968106,"['establishment', 'point_of_interest', 'subway_station', 'transit_station']","7 Avenue(123)","Upper Manhattan"
"321","INWOOD-207 ST","A","INWOOD-207 ST subway station Line A, New York","207 St Station, New York, NY 10034, USA","207 St Station","None","None","10034","Manhattan","New York County","New York","United States",40.8676635,-73.9212009,"['establishment', 'point_of_interest', 'subway_station', 'transit_station']","8 Avenue(ACE)","Upper Manhattan"
"322","JACKSON AV","25","JACKSON AV subway station Line 25, New York","Vernon Boulevard-Jackson Avenue Station, Queens, NY 11101, USA","Vernon Boulevard-Jackson Avenue Station","None","None","11101","Queens","Queens County","New York","United States",40.7426713,-73.9537248,"['establishment', 'point_of_interest', 'subway_station', 'transit_station']","7 Avenue(123)","Middle Manhattan"
"323","JAMAICA 179 ST","F","JAMAICA 179 ST subway station Line F, New York","179 St Station, 179th St, Queens, NY 11432, USA","179 St Station","None","179th Street","11432","Queens","Queens County","New York","United States",40.7127866,-73.7832876,"['establishment', 'point_of_interest', 'subway_station', 'transit_station']","6 Avenue(BDFM)","Queen"
"324","JAMAICA CENTER","EJZ","JAMAICA CENTER subway station Line EJZ, New York","Jamaica Center - Parsons/Archer Station, Queens, NY, USA","Jamaica Center - Parsons/Archer Station","None","None","None","Queens","Queens County","New York","United States",40.7021447,-73.8008771,"['establishment', 'point_of_interest', 'transit_station']","8 Avenue(ACE)","Queen"
"325","JAMAICA VAN WK","E","JAMAICA VAN WK subway station Line E, New York","Jamaica - Van Wyck, Queens, NY 11418, USA","Jamaica - Van Wyck","None","None","11418","Queens","Queens County","New York","United States",40.7027409,-73.8172514,"['establishment', 'point_of_interest', 'subway_station', 'transit_station']","8 Avenue(ACE)","Queen"
"326","JAY ST-METROTEC","ACF","JAY ST-METROTEC subway station Line ACF, New York","Jay Street Metro Tech, Brooklyn, NY 11201, USA","Jay Street Metro Tech","None","None","11201","Brooklyn","Kings County","New York","United States",40.6923458,-73.987257,"['establishment', 'point_of_interest', 'transit_station']","8 Avenue(ACE)","Lower Manhattan"
"327","JAY ST-METROTEC","R","JAY ST-METROTEC subway station Line R, New York","379 Bridge St, Brooklyn, NY 11201, USA","None","379","Bridge Street","11201","Brooklyn","Kings County","New York","United States",40.6920517,-73.9851603,"['establishment', 'point_of_interest']","Broadway(NQRW)","Lower Manhattan"
"328","JEFFERSON ST","L","JEFFERSON ST subway station Line L, New York","Jefferson Street, Brooklyn, NY 11237, USA","Jefferson Street","None","None","11237","Brooklyn","Kings County","New York","United States",40.7070754,-73.9238689,"['establishment', 'point_of_interest', 'subway_station', 'transit_station']","14 St-Canarsie(L)","Queen-Brooklyn"
"329","JFK JAMAICA CT1","E","JFK JAMAICA CT1 subway station Line E, New York","Sutphin Blvd - Archer Av - JFK Airport, Queens, NY 11435, USA","Sutphin Blvd - Archer Av - JFK Airport","None","None","11435","Queens","Queens County","New York","United States",40.700822,-73.8079243,"['establishment', 'point_of_interest', 'subway_station', 'transit_station']","8 Avenue(ACE)","Queen"
"330","JKSN HT-ROOSVLT","EFMR","JKSN HT-ROOSVLT subway station Line EFMR, New York","74 St - Broadway/Roosevelt Av - Jackson Heights, Roosevelt Ave &, 74th Street, Queens, NY 11372, USA","74 St - Broadway/Roosevelt Av - Jackson Heights","None","74th Street","11372","Queens","Queens County","New York","United States",40.746739,-73.8909986,"['establishment', 'point_of_interest', 'subway_station', 'transit_station']","6 Avenue(BDFM)","Queen"
"331","JOURNAL SQUARE","1","JOURNAL SQUARE subway station Line 1, New York","Journal Square, 1 Path Plaza, Jersey City, NJ 07306, USA","Journal Square","1","Path Plaza","07306","None","Hudson County","New Jersey","United States",40.73265,-74.0626901,"['establishment', 'point_of_interest', 'train_station', 'transit_station']","7 Avenue(123)",NA
"332","JUNCTION BLVD","7","JUNCTION BLVD subway station Line 7, New York","Junction Blvd, Queens, NY 11368, USA","Junction Blvd","None","None","11368","Queens","Queens County","New York","United States",40.749203,-73.8693365,"['establishment', 'point_of_interest', 'subway_station', 'transit_station']","Flushing(7)","Queen"
"333","JUNIUS ST","3","JUNIUS ST subway station Line 3, New York","Junius Street Station, Brooklyn, NY 11212, USA","Junius Street Station","None","None","11212","Brooklyn","Kings County","New York","United States",40.6634442,-73.9029117,"['establishment', 'point_of_interest', 'subway_station', 'transit_station']","7 Avenue(123)","Queen-Brooklyn"
"334","KEW GARDENS","EF","KEW GARDENS subway station Line EF, New York","Kew Gardens - Union Tpke, Queens Blvd &, Union Tpke, Queens, NY 11415, USA","Kew Gardens - Union Tpke","None","Union Turnpike","11415","Queens","Queens County","New York","United States",40.7141955,-73.8309659,"['establishment', 'point_of_interest', 'subway_station', 'transit_station']","8 Avenue(ACE)","Queen"
"335","KINGS HWY","BQ","KINGS HWY subway station Line BQ, New York","Kings Hwy, Brooklyn, NY 11229, USA","Kings Hwy","None","None","11229","Brooklyn","Kings County","New York","United States",40.6086735,-73.9578112,"['establishment', 'point_of_interest', 'subway_station', 'transit_station']","6 Avenue(BDFM)","Brooklyn"
"336","KINGS HWY","F","KINGS HWY subway station Line F, New York","Kings Hwy, Brooklyn, NY 11229, USA","Kings Hwy","None","None","11229","Brooklyn","Kings County","New York","United States",40.6086735,-73.9578112,"['establishment', 'point_of_interest', 'subway_station', 'transit_station']","6 Avenue(BDFM)","Brooklyn"
"337","KINGS HWY","N","KINGS HWY subway station Line N, New York","Kings Hwy, Brooklyn, NY 11229, USA","Kings Hwy","None","None","11229","Brooklyn","Kings County","New York","United States",40.6086735,-73.9578112,"['establishment', 'point_of_interest', 'subway_station', 'transit_station']","Broadway(NQRW)","Brooklyn"
"338","KINGSBRIDGE RD","4","KINGSBRIDGE RD subway station Line 4, New York","Kingsbridge Rd, Bronx, NY 10458, USA","Kingsbridge Rd","None","None","10458","Bronx","Bronx County","New York","United States",40.8662419,-73.8939541,"['establishment', 'point_of_interest', 'subway_station', 'transit_station']","Lexington Av(456)","Bronx"
"339","KINGSBRIDGE RD","BD","KINGSBRIDGE RD subway station Line BD, New York","Kingsbridge Rd, Bronx, NY 10458, USA","Kingsbridge Rd","None","None","10458","Bronx","Bronx County","New York","United States",40.8662419,-73.8939541,"['establishment', 'point_of_interest', 'subway_station', 'transit_station']","6 Avenue(BDFM)","Bronx"
"340","KINGSTON-THROOP","C","KINGSTON-THROOP subway station Line C, New York","Kingston - Throop Avs, Brooklyn, NY 11213, USA","Kingston - Throop Avs","None","None","11213","Brooklyn","Kings County","New York","United States",40.6798128,-73.9411285,"['establishment', 'point_of_interest', 'subway_station', 'transit_station']","8 Avenue(ACE)","Queen-Brooklyn"
"341","KINGSTON AV","3","KINGSTON AV subway station Line 3, New York","Kingston Avenue, Brooklyn, NY 11213, USA","Kingston Avenue","None","None","11213","Brooklyn","Kings County","New York","United States",40.6692845,-73.9422927,"['establishment', 'point_of_interest', 'subway_station', 'transit_station']","7 Avenue(123)","Queen-Brooklyn"
"342","KNICKERBOCKER","M","KNICKERBOCKER subway station Line M, New York","Knickerbocker Av, Brooklyn, NY 11237, USA","Knickerbocker Av","None","None","11237","Brooklyn","Kings County","New York","United States",40.6987489,-73.9197228,"['establishment', 'point_of_interest', 'subway_station', 'transit_station']","6 Avenue(BDFM)","Queen-Brooklyn"
"343","KOSCIUSZKO ST","J","KOSCIUSZKO ST subway station Line J, New York","Kosciuszko St, Brooklyn, NY 11221, USA","Kosciuszko St","None","None","11221","Brooklyn","Kings County","New York","United States",40.6932868,-73.9288263,"['establishment', 'point_of_interest', 'subway_station', 'transit_station']","8 Avenue(ACE)","Queen-Brooklyn"
"344","LACKAWANNA","1","LACKAWANNA subway station Line 1, New York","Pennsylvania Station, New York, NY 10119, USA","Pennsylvania Station","None","None","10119","Manhattan","New York County","New York","United States",40.750568,-73.993519,"['establishment', 'point_of_interest', 'train_station', 'transit_station']","7 Avenue(123)","Lower Manhattan"
"345","LAFAYETTE AV","C","LAFAYETTE AV subway station Line C, New York","Lafayette Av, Brooklyn, NY 11217, USA","Lafayette Av","None","None","11217","Brooklyn","Kings County","New York","United States",40.6863222,-73.9744759,"['establishment', 'point_of_interest', 'subway_station', 'transit_station']","8 Avenue(ACE)","Lower Manhattan"
"346","LEXINGTON AV/53","EM","LEXINGTON AV/53 subway station Line EM, New York","Lexington Av/53 St, New York, NY 10022, USA","Lexington Av/53 St","None","None","10022","Manhattan","New York County","New York","United States",40.7577272,-73.9690802,"['establishment', 'point_of_interest', 'subway_station', 'transit_station']","8 Avenue(ACE)","Middle Manhattan"
"347","LEXINGTON AV/63","FQ","LEXINGTON AV/63 subway station Line FQ, New York","Lexington Av/63 St, New York, NY 10065, USA","Lexington Av/63 St","None","None","10065","Manhattan","New York County","New York","United States",40.7641324,-73.9650342,"['establishment', 'point_of_interest', 'subway_station', 'transit_station']","6 Avenue(BDFM)","Middle Manhattan"
"348","LIBERTY AV","C","LIBERTY AV subway station Line C, New York","Liberty Av, Brooklyn, NY 11207, USA","Liberty Av","None","None","11207","Brooklyn","Kings County","New York","United States",40.6744035,-73.8965181,"['establishment', 'point_of_interest', 'subway_station', 'transit_station']","8 Avenue(ACE)","Queen-Brooklyn"
"349","LIVONIA AV","L","LIVONIA AV subway station Line L, New York","Livonia Av, Brooklyn, NY 11212, USA","Livonia Av","None","None","11212","Brooklyn","Kings County","New York","United States",40.66404,-73.900574,"['establishment', 'point_of_interest', 'subway_station', 'transit_station']","14 St-Canarsie(L)","Queen-Brooklyn"
"350","LONGWOOD AV","6","LONGWOOD AV subway station Line 6, New York","Longwood Av, Bronx, NY 10455, USA","Longwood Av","None","None","10455","Bronx","Bronx County","New York","United States",40.8163341,-73.8962431,"['establishment', 'point_of_interest', 'subway_station', 'transit_station']","Lexington Av(456)","Upper Manhattan"
"351","LORIMER ST","GL","LORIMER ST subway station Line GL, New York","Lorimer St, Brooklyn, NY 11211, USA","Lorimer St","None","None","11211","Brooklyn","Kings County","New York","United States",40.7142374,-73.9493118,"['establishment', 'point_of_interest', 'subway_station', 'transit_station']","Brooklyn-Queens Crosstown(G)","Queen-Brooklyn"
"352","LORIMER ST","JM","LORIMER ST subway station Line JM, New York","Lorimer St, Brooklyn, NY 11211, USA","Lorimer St","None","None","11211","Brooklyn","Kings County","New York","United States",40.7142374,-73.9493118,"['establishment', 'point_of_interest', 'subway_station', 'transit_station']","6 Avenue(BDFM)","Queen-Brooklyn"
"353","MARBLE HILL-225","1","MARBLE HILL-225 subway station Line 1, New York","Marble Hill - 225 St, New York, NY 10034, USA","Marble Hill - 225 St","None","None","10034","Manhattan","New York County","New York","United States",40.8743487,-73.9104331,"['establishment', 'point_of_interest', 'subway_station', 'transit_station']","7 Avenue(123)","Bronx"
"354","MARCY AV","JMZ","MARCY AV subway station Line JMZ, New York","Marcy Av, Brooklyn, NY 11211, USA","Marcy Av","None","None","11211","Brooklyn","Kings County","New York","United States",40.7085154,-73.9578546,"['establishment', 'point_of_interest', 'subway_station', 'transit_station']","6 Avenue(BDFM)","Queen-Brooklyn"
"355","METROPOLITAN AV","GL","METROPOLITAN AV subway station Line GL, New York","Metropolitan Av, Brooklyn, NY 11211, USA","Metropolitan Av","None","None","11211","Brooklyn","Kings County","New York","United States",40.7137509,-73.9517724,"['establishment', 'point_of_interest', 'subway_station', 'transit_station']","Brooklyn-Queens Crosstown(G)","Queen-Brooklyn"
"356","METROPOLITAN AV","M","METROPOLITAN AV subway station Line M, New York","Metropolitan Av/Lorimer St, Brooklyn, NY 11211, USA","Metropolitan Av/Lorimer St","None","None","11211","Brooklyn","Kings County","New York","United States",40.7139225,-73.9493905,"['establishment', 'point_of_interest', 'transit_station']","6 Avenue(BDFM)","Queen-Brooklyn"
"357","METS-WILLETS PT","7","METS-WILLETS PT subway station Line 7, New York","Mets - Willets Point, near 126th Street &, Roosevelt Ave, Queens, NY 11368, USA","Mets - Willets Point","None","Roosevelt Avenue","11368","Queens","Queens County","New York","United States",40.7547262,-73.8456568,"['establishment', 'point_of_interest', 'subway_station', 'transit_station']","Flushing(7)","Queen"
"358","MIDDLETOWN RD","6","MIDDLETOWN RD subway station Line 6, New York","Middletown Rd Station, Bronx, NY 10461, USA","Middletown Rd Station","None","None","10461","Bronx","Bronx County","New York","United States",40.843915,-73.8361681,"['establishment', 'point_of_interest', 'subway_station', 'transit_station']","Lexington Av(456)","Bronx"
"359","MONTROSE AV","L","MONTROSE AV subway station Line L, New York","Montrose Avenue Station, Brooklyn, NY 11206, USA","Montrose Avenue Station","None","None","11206","Brooklyn","Kings County","New York","United States",40.7077716,-73.9398633,"['establishment', 'point_of_interest', 'subway_station', 'transit_station']","14 St-Canarsie(L)","Queen-Brooklyn"
"360","MORGAN AV","L","MORGAN AV subway station Line L, New York","Morgan Av, Brooklyn, NY 11237, USA","Morgan Av","None","None","11237","Brooklyn","Kings County","New York","United States",40.7060759,-73.93371,"['establishment', 'point_of_interest', 'subway_station', 'transit_station']","14 St-Canarsie(L)","Queen-Brooklyn"
"361","MORISN AV/SNDVW","6","MORISN AV/SNDVW subway station Line 6, New York","Morrison Avenue-Soundview Station, Bronx, NY 10472, USA","Morrison Avenue-Soundview Station","None","None","10472","Bronx","Bronx County","New York","United States",40.8294898,-73.8746754,"['establishment', 'point_of_interest', 'subway_station', 'transit_station']","Lexington Av(456)","Bronx"
"362","MORRIS PARK","5","MORRIS PARK subway station Line 5, New York","Morris Park Station, Bronx, NY 10462, USA","Morris Park Station","None","None","10462","Bronx","Bronx County","New York","United States",40.854539,-73.8602974,"['establishment', 'point_of_interest', 'subway_station', 'transit_station']","Lexington Av(456)","Bronx"
"363","MOSHOLU PKWY","4","MOSHOLU PKWY subway station Line 4, New York","Mosholu Pkwy, Bronx, NY 10467, USA","Mosholu Pkwy","None","None","10467","Bronx","Bronx County","New York","United States",40.8797547,-73.8845616,"['establishment', 'point_of_interest', 'subway_station', 'transit_station']","Lexington Av(456)","Bronx"
"364","MT EDEN AV","4","MT EDEN AV subway station Line 4, New York","Mt Eden Av, Bronx, NY 10452, USA","Mt Eden Av","None","None","10452","Bronx","Bronx County","New York","United States",40.8445565,-73.9147392,"['establishment', 'point_of_interest', 'subway_station', 'transit_station']","Lexington Av(456)","Upper Manhattan"
"365","MYRTLE-WILLOUGH","G","MYRTLE-WILLOUGH subway station Line G, New York","Myrtle - Willoughby Avs, Brooklyn, NY 11206, USA","Myrtle - Willoughby Avs","None","None","11206","Brooklyn","Kings County","New York","United States",40.6954671,-73.9492203,"['establishment', 'point_of_interest', 'subway_station', 'transit_station']","Brooklyn-Queens Crosstown(G)","Queen-Brooklyn"
"366","MYRTLE-WYCKOFF","LM","MYRTLE-WYCKOFF subway station Line LM, New York","Myrtle - Wyckoff Avs, Brooklyn, NY 11237, USA","Myrtle - Wyckoff Avs","None","None","11237","Brooklyn","Kings County","New York","United States",40.699686,-73.9117713,"['establishment', 'point_of_interest', 'subway_station', 'transit_station']","6 Avenue(BDFM)","Queen-Brooklyn"
"367","MYRTLE AV","JMZ","MYRTLE AV subway station Line JMZ, New York","Myrtle Av/Broadway, Brooklyn, NY, USA","Myrtle Av/Broadway","None","None","None","Brooklyn","Kings County","New York","United States",40.696823,-73.93539,"['establishment', 'point_of_interest', 'transit_station']","6 Avenue(BDFM)","Queen-Brooklyn"
"368","NASSAU AV","G","NASSAU AV subway station Line G, New York","Nassau Av, Nassau Ave, Brooklyn, NY 11222, USA","Nassau Av","None","Nassau Avenue","11222","Brooklyn","Kings County","New York","United States",40.7254595,-73.9517512,"['establishment', 'point_of_interest', 'subway_station', 'transit_station']","Brooklyn-Queens Crosstown(G)","Middle Manhattan"
"369","NECK RD","BQ","NECK RD subway station Line BQ, New York","Neck Rd, Brooklyn, NY 11229, USA","Neck Rd","None","None","11229","Brooklyn","Kings County","New York","United States",40.5951526,-73.9550266,"['establishment', 'point_of_interest', 'subway_station', 'transit_station']","6 Avenue(BDFM)","Brooklyn"
"370","NEPTUNE AV","F","NEPTUNE AV subway station Line F, New York","Neptune Av, W 6th St, Brooklyn, NY 11224, USA","Neptune Av","None","West 6th Street","11224","Brooklyn","Kings County","New York","United States",40.581131,-73.97457,"['establishment', 'point_of_interest', 'subway_station', 'transit_station']","6 Avenue(BDFM)","Brooklyn"
"371","NEREID AV","25","NEREID AV subway station Line 25, New York","Nereid Av/White Plains Rd, Bronx, NY 10466, USA","Nereid Av/White Plains Rd","None","None","10466","Bronx","Bronx County","New York","United States",40.89851,-73.8547086,"['establishment', 'point_of_interest', 'transit_station']","7 Avenue(123)","Bronx"
"372","NEVINS ST","2345","NEVINS ST subway station Line 2345, New York","Nevins St, Brooklyn, NY, USA","None","None","Nevins Street","None","Brooklyn","Kings County","New York","United States",40.6830195,-73.9847286,"['route']","7 Avenue(123)","Lower Manhattan"
"373","NEW LOTS","L","NEW LOTS subway station Line L, New York","New Lots Avenue, Brooklyn, NY 11212, USA","New Lots Avenue","None","None","11212","Brooklyn","Kings County","New York","United States",40.6588826,-73.899213,"['establishment', 'point_of_interest', 'subway_station', 'transit_station']","14 St-Canarsie(L)","Queen-Brooklyn"
"374","NEW LOTS AV","3","NEW LOTS AV subway station Line 3, New York","New Lots Av, Brooklyn, NY 11207, USA","New Lots Av","None","None","11207","Brooklyn","Kings County","New York","United States",40.6663158,-73.8837618,"['establishment', 'point_of_interest', 'subway_station', 'transit_station']","7 Avenue(123)","Queen-Brooklyn"
"375","NEW UTRECHT AV","DN","NEW UTRECHT AV subway station Line DN, New York","New Utrecht Av, New Utrecht Ave, Brooklyn, NY 11219, USA","New Utrecht Av","None","New Utrecht Avenue","11219","Brooklyn","Kings County","New York","United States",40.6255554,-73.9967859,"['establishment', 'point_of_interest', 'subway_station', 'transit_station']","6 Avenue(BDFM)","Brooklyn"
"376","NEWARK BM BW","1","NEWARK BM BW subway station Line 1, New York","New York, NY, USA","None","None","None","None","None","None","New York","United States",40.7127753,-74.0059728,"['locality', 'political']","7 Avenue(123)","Lower Manhattan"
"377","NEWARK C","1","NEWARK C subway station Line 1, New York","Newark, 1 Raymond Plaza West &, Market St, Newark, NJ 07102, USA","Newark","None","Market Street","07102","None","Essex County","New Jersey","United States",40.7345989,-74.1639867,"['establishment', 'point_of_interest', 'train_station', 'transit_station']","7 Avenue(123)",NA
"378","NEWARK HM HE","1","NEWARK HM HE subway station Line 1, New York","Newark Liberty International Airport (EWR), 3 Brewster Rd, Newark, NJ 07114, USA","Newark Liberty International Airport","3","Brewster Road","07114","None","None","New Jersey","United States",40.6895314,-74.1744624,"['airport', 'establishment', 'point_of_interest']","7 Avenue(123)",NA
"379","NEWARK HW BMEBE","1","NEWARK HW BMEBE subway station Line 1, New York","Cortlandt St, New York, NY 10007, USA","Cortlandt St","None","None","10007","Manhattan","New York County","New York","United States",40.7110056,-74.010763,"['establishment', 'point_of_interest', 'subway_station', 'transit_station']","7 Avenue(123)","Lower Manhattan"
"380","NEWKIRK AV","25","NEWKIRK AV subway station Line 25, New York","Newkirk Plaza, Newkirk Plaza, Brooklyn, NY 11226, USA","Newkirk Plaza","None","Newkirk Plaza","11226","Brooklyn","Kings County","New York","United States",40.6349893,-73.9627801,"['establishment', 'point_of_interest', 'subway_station', 'transit_station']","7 Avenue(123)","Brooklyn"
"381","NEWKIRK PLAZA","BQ","NEWKIRK PLAZA subway station Line BQ, New York","Newkirk Plaza, Newkirk Plaza, Brooklyn, NY 11226, USA","Newkirk Plaza","None","Newkirk Plaza","11226","Brooklyn","Kings County","New York","United States",40.6349893,-73.9627801,"['establishment', 'point_of_interest', 'subway_station', 'transit_station']","6 Avenue(BDFM)","Brooklyn"
"382","NORTHERN BLVD","MR","NORTHERN BLVD subway station Line MR, New York","Northern Blvd, Queens, NY 11377, USA","Northern Blvd","None","None","11377","Queens","Queens County","New York","United States",40.7531164,-73.9071111,"['establishment', 'point_of_interest', 'subway_station', 'transit_station']","6 Avenue(BDFM)","Middle Manhattan"
"383","NORWOOD 205 ST","D","NORWOOD 205 ST subway station Line D, New York","Norwood-205 St, Bronx, NY 10467, USA","Norwood-205 St","None","None","10467","Bronx","Bronx County","New York","United States",40.8741411,-73.8775224,"['establishment', 'point_of_interest', 'subway_station', 'transit_station']","6 Avenue(BDFM)","Bronx"
"384","NORWOOD AV","JZ","NORWOOD AV subway station Line JZ, New York","Norwood Av, Brooklyn, NY 11208, USA","Norwood Av","None","None","11208","Brooklyn","Kings County","New York","United States",40.6817068,-73.8791274,"['establishment', 'point_of_interest', 'subway_station', 'transit_station']","8 Avenue(ACE)","Queen"
"385","NOSTRAND AV","3","NOSTRAND AV subway station Line 3, New York","Nostrand Av, Brooklyn, NY 11216, USA","Nostrand Av","None","None","11216","Brooklyn","Kings County","New York","United States",40.6804056,-73.9495722,"['establishment', 'point_of_interest', 'subway_station', 'transit_station']","7 Avenue(123)","Queen-Brooklyn"
"386","NOSTRAND AV","AC","NOSTRAND AV subway station Line AC, New York","Nostrand Av, Brooklyn, NY 11216, USA","Nostrand Av","None","None","11216","Brooklyn","Kings County","New York","United States",40.6804056,-73.9495722,"['establishment', 'point_of_interest', 'subway_station', 'transit_station']","8 Avenue(ACE)","Queen-Brooklyn"
"387","OCEAN PKWY","Q","OCEAN PKWY subway station Line Q, New York","Ocean Pkwy, Brooklyn, NY 11235, USA","Ocean Pkwy","None","None","11235","Brooklyn","Kings County","New York","United States",40.576313,-73.968498,"['establishment', 'point_of_interest', 'subway_station', 'transit_station']","Broadway(NQRW)","Brooklyn"
"388","ORCHARD BEACH","6","ORCHARD BEACH subway station Line 6, New York","2067-2087 Lexington Ave, New York, NY 10035, USA","None","2067-2087","Lexington Avenue","10035","Manhattan","New York County","New York","United States",40.8045381,-73.9371797,"['establishment', 'point_of_interest']","Lexington Av(456)","Upper Manhattan"
"389","OZONE PK LEFFRT","A","OZONE PK LEFFRT subway station Line A, New York","Lefferts Blvd, Queens, NY 11419, USA","Lefferts Blvd","None","None","11419","Queens","Queens County","New York","United States",40.6861622,-73.824526,"['establishment', 'point_of_interest', 'subway_station', 'transit_station']","8 Avenue(ACE)","Queen"
"390","PARK PLACE","23","PARK PLACE subway station Line 23, New York","Park Place, Brooklyn, NY 11238, USA","Park Place","None","None","11238","Brooklyn","Kings County","New York","United States",40.674736,-73.9578518,"['establishment', 'point_of_interest', 'subway_station', 'transit_station']","7 Avenue(123)","Queen-Brooklyn"
"391","PARK PLACE","S","PARK PLACE subway station Line S, New York","Park Place, Brooklyn, NY 11238, USA","Park Place","None","None","11238","Brooklyn","Kings County","New York","United States",40.674736,-73.9578518,"['establishment', 'point_of_interest', 'subway_station', 'transit_station']","Shuttle(S)","Queen-Brooklyn"
"392","PARKCHESTER","6","PARKCHESTER subway station Line 6, New York","Parkchester, Bronx, NY 10472, USA","Parkchester","None","None","10472","Bronx","Bronx County","New York","United States",40.8332116,-73.8610088,"['establishment', 'point_of_interest', 'subway_station', 'transit_station']","Lexington Av(456)","Bronx"
"393","PARKSIDE AV","BQ","PARKSIDE AV subway station Line BQ, New York","Parkside Avenue Station, Parkside Ave, Brooklyn, NY 11226, USA","Parkside Avenue Station","None","Parkside Avenue","11226","Brooklyn","Kings County","New York","United States",40.655293,-73.961494,"['establishment', 'point_of_interest', 'subway_station', 'transit_station']","6 Avenue(BDFM)","Brooklyn"
"394","PARSONS BLVD","F","PARSONS BLVD subway station Line F, New York","Parsons Blvd, Parsons Blvd, Queens, NY 11432, USA","Parsons Blvd","None","Parsons Boulevard","11432","Queens","Queens County","New York","United States",40.707714,-73.8028238,"['establishment', 'point_of_interest', 'subway_station', 'transit_station']","6 Avenue(BDFM)","Queen"
"395","PATH WTC 2","1","PATH WTC 2 subway station Line 1, New York","World Trade Center, 10007, 70 Vesey St, New York, NY 10006, USA","World Trade Center","70","Vesey Street","10006","Manhattan","New York County","New York","United States",40.7115742,-74.0114485,"['establishment', 'point_of_interest', 'train_station', 'transit_station']","7 Avenue(123)","Lower Manhattan"
"396","PAVONIA/NEWPORT","1","PAVONIA/NEWPORT subway station Line 1, New York","Newport PATH, Jersey City, NJ 07310, USA","Newport PATH","None","None","07310","None","Hudson County","New Jersey","United States",40.72699,-74.03383,"['establishment', 'point_of_interest', 'transit_station']","7 Avenue(123)",NA
"397","PELHAM BAY PARK","6","PELHAM BAY PARK subway station Line 6, New York","Pelham Bay Park, Bronx, NY 10461, USA","Pelham Bay Park","None","None","10461","Bronx","Bronx County","New York","United States",40.8529307,-73.8270555,"['establishment', 'point_of_interest', 'subway_station', 'transit_station']","Lexington Av(456)","Bronx"
"398","PELHAM PKWY","25","PELHAM PKWY subway station Line 25, New York","Pelham Pkwy, 2188 White Plains Rd, Bronx, NY 10462, USA","Pelham Pkwy","2188","White Plains Road","10462","Bronx","Bronx County","New York","United States",40.8570653,-73.8677059,"['establishment', 'point_of_interest', 'subway_station', 'transit_station']","7 Avenue(123)","Bronx"
"399","PELHAM PKWY","5","PELHAM PKWY subway station Line 5, New York","Pelham Parkway, Bronx, NY 10469, USA","Pelham Parkway","None","None","10469","Bronx","Bronx County","New York","United States",40.8588602,-73.8554592,"['establishment', 'point_of_interest', 'subway_station', 'transit_station']","Lexington Av(456)","Bronx"
"400","PENNSYLVANIA AV","3","PENNSYLVANIA AV subway station Line 3, New York","Pennsylvania Av Station, Brooklyn, NY 11207, USA","Pennsylvania Av Station","None","None","11207","Brooklyn","Kings County","New York","United States",40.6646911,-73.8941747,"['establishment', 'point_of_interest', 'subway_station', 'transit_station']","7 Avenue(123)","Queen-Brooklyn"
"401","PRESIDENT ST","25","PRESIDENT ST subway station Line 25, New York","President Street, Brooklyn, NY 11225, USA","President Street","None","None","11225","Brooklyn","Kings County","New York","United States",40.6681585,-73.9506586,"['establishment', 'point_of_interest', 'subway_station', 'transit_station']","7 Avenue(123)","Queen-Brooklyn"
"402","PRINCE ST","NRW","PRINCE ST subway station Line NRW, New York","Prince St Station, New York, NY 10012, USA","Prince St Station","None","None","10012","Manhattan","New York County","New York","United States",40.7242323,-73.997806,"['establishment', 'point_of_interest', 'subway_station', 'transit_station']","Broadway(NQRW)","Lower Manhattan"
"403","PROSPECT AV","25","PROSPECT AV subway station Line 25, New York","Prospect Av, Prospect Ave, Brooklyn, NY 11215, USA","Prospect Av","None","Prospect Avenue","11215","Brooklyn","Kings County","New York","United States",40.6654137,-73.9929259,"['establishment', 'point_of_interest', 'subway_station', 'transit_station']","7 Avenue(123)","Brooklyn"
"404","PROSPECT AV","R","PROSPECT AV subway station Line R, New York","Prospect Av, Prospect Ave, Brooklyn, NY 11215, USA","Prospect Av","None","Prospect Avenue","11215","Brooklyn","Kings County","New York","United States",40.6654137,-73.9929259,"['establishment', 'point_of_interest', 'subway_station', 'transit_station']","Broadway(NQRW)","Brooklyn"
"405","PROSPECT PARK","BQS","PROSPECT PARK subway station Line BQS, New York","Prospect Park, Lincoln Rd, Brooklyn, NY 11226, USA","Prospect Park","None","Lincoln Road","11226","Brooklyn","Kings County","New York","United States",40.6608941,-73.9621229,"['establishment', 'point_of_interest', 'subway_station', 'transit_station']","Shuttle(S)","Brooklyn"
"406","QUEENS PLAZA","EMR","QUEENS PLAZA subway station Line EMR, New York","Queens Plaza, Queens, NY 11101, USA","Queens Plaza","None","None","11101","Queens","Queens County","New York","United States",40.7488451,-73.9374357,"['establishment', 'point_of_interest', 'subway_station', 'transit_station']","8 Avenue(ACE)","Middle Manhattan"
"407","QUEENSBORO PLZ","7NW","QUEENSBORO PLZ subway station Line 7NW, New York","Queensboro Plaza Station, Queens, NY 11101, USA","Queensboro Plaza Station","None","None","11101","Queens","Queens County","New York","United States",40.750584,-73.940201,"['establishment', 'point_of_interest', 'subway_station', 'transit_station']","Broadway(NQRW)","Middle Manhattan"
"408","RALPH AV","C","RALPH AV subway station Line C, New York","Ralph Av, Brooklyn, NY 11233, USA","Ralph Av","None","None","11233","Brooklyn","Kings County","New York","United States",40.6787336,-73.9215528,"['establishment', 'point_of_interest', 'subway_station', 'transit_station']","8 Avenue(ACE)","Queen-Brooklyn"
"409","RECTOR ST","1","RECTOR ST subway station Line 1, New York","Rector St, New York, NY 10006, USA","Rector St","None","None","10006","Manhattan","New York County","New York","United States",40.7078954,-74.0136365,"['establishment', 'point_of_interest', 'subway_station', 'transit_station']","7 Avenue(123)","Lower Manhattan"
"410","RECTOR ST","NRW","RECTOR ST subway station Line NRW, New York","Rector St, New York, NY 10006, USA","Rector St","None","None","10006","Manhattan","New York County","New York","United States",40.7078954,-74.0136365,"['establishment', 'point_of_interest', 'subway_station', 'transit_station']","Broadway(NQRW)","Lower Manhattan"
"411","RIT-MANHATTAN","R","RIT-MANHATTAN subway station Line R, New York","8 Street Station, New York, NY 10003, USA","8 Street Station","None","None","10003","Manhattan","New York County","New York","United States",40.7306579,-73.9923894,"['establishment', 'point_of_interest', 'subway_station', 'transit_station']","Broadway(NQRW)","Lower Manhattan"
"412","RIT-ROOSEVELT","R","RIT-ROOSEVELT subway station Line R, New York","Roosevelt Island Subway Station, New York, NY 10044, USA","Roosevelt Island Subway Station","None","None","10044","Manhattan","New York County","New York","United States",40.7591215,-73.9533188,"['establishment', 'point_of_interest', 'subway_station', 'transit_station']","Broadway(NQRW)","Middle Manhattan"
"413","ROCKAWAY AV","3","ROCKAWAY AV subway station Line 3, New York","Rockaway Av Station, Brooklyn, NY 11224, USA","Rockaway Av Station","None","None","11224","Brooklyn","Kings County","New York","United States",40.6625632,-73.9089054,"['establishment', 'point_of_interest', 'subway_station', 'transit_station']","7 Avenue(123)","Queen-Brooklyn"
"414","ROCKAWAY AV","C","ROCKAWAY AV subway station Line C, New York","Rockaway Av, Brooklyn, NY 11233, USA","Rockaway Av","None","None","11233","Brooklyn","Kings County","New York","United States",40.6784919,-73.9107718,"['establishment', 'point_of_interest', 'subway_station', 'transit_station']","8 Avenue(ACE)","Queen-Brooklyn"
"415","ROCKAWAY BLVD","A","ROCKAWAY BLVD subway station Line A, New York","Rockaway Blvd, Queens, NY 11417, USA","Rockaway Blvd","None","None","11417","Queens","Queens County","New York","United States",40.6803958,-73.8438385,"['establishment', 'point_of_interest', 'subway_station', 'transit_station']","8 Avenue(ACE)","Queen"
"416","ROCKAWAY PARK B","AS","ROCKAWAY PARK B subway station Line AS, New York","Rockaway Park - Beach 116 St, Queens, NY 11694, USA","Rockaway Park - Beach 116 St","None","None","11694","Queens","Queens County","New York","United States",40.5805469,-73.8374249,"['establishment', 'point_of_interest', 'subway_station', 'transit_station']","8 Avenue(ACE)","Rockaway Beach"
"417","ROOSEVELT ISLND","F","ROOSEVELT ISLND subway station Line F, New York","Roosevelt Island Subway Station, New York, NY 10044, USA","Roosevelt Island Subway Station","None","None","10044","Manhattan","New York County","New York","United States",40.7591215,-73.9533188,"['establishment', 'point_of_interest', 'subway_station', 'transit_station']","6 Avenue(BDFM)","Middle Manhattan"
"418","SARATOGA AV","3","SARATOGA AV subway station Line 3, New York","Saratoga Avenue Station, Brooklyn, NY 11212, USA","Saratoga Avenue Station","None","None","11212","Brooklyn","Kings County","New York","United States",40.6615729,-73.9160543,"['establishment', 'point_of_interest', 'subway_station', 'transit_station']","7 Avenue(123)","Queen-Brooklyn"
"419","SENECA AVE","M","SENECA AVE subway station Line M, New York","Seneca Av, Queens, NY 11385, USA","Seneca Av","None","None","11385","Queens","Queens County","New York","United States",40.7028022,-73.9077234,"['establishment', 'point_of_interest', 'subway_station', 'transit_station']","6 Avenue(BDFM)","Queen-Brooklyn"
"420","SHEEPSHEAD BAY","BQ","SHEEPSHEAD BAY subway station Line BQ, New York","Sheepshead Bay, Brooklyn, NY 11235, USA","Sheepshead Bay","None","None","11235","Brooklyn","Kings County","New York","United States",40.5867923,-73.9542423,"['establishment', 'point_of_interest', 'subway_station', 'transit_station']","6 Avenue(BDFM)","Brooklyn"
"421","SHEPHERD AV","C","SHEPHERD AV subway station Line C, New York","Shepherd Av, Brooklyn, NY 11208, USA","Shepherd Av","None","None","11208","Brooklyn","Kings County","New York","United States",40.6741306,-73.8808073,"['establishment', 'point_of_interest', 'subway_station', 'transit_station']","8 Avenue(ACE)","Queen-Brooklyn"
"422","SIMPSON ST","25","SIMPSON ST subway station Line 25, New York","Simpson St, Bronx, NY 10459, USA","Simpson St","None","None","10459","Bronx","Bronx County","New York","United States",40.8242542,-73.8928917,"['establishment', 'point_of_interest', 'subway_station', 'transit_station']","7 Avenue(123)","Upper Manhattan"
"423","SMITH-9 ST","FG","SMITH-9 ST subway station Line FG, New York","Smith-9th Streets, 9th St, Brooklyn, NY 11231, USA","Smith-9th Streets","None","9th Street","11231","Brooklyn","Kings County","New York","United States",40.6739071,-73.9965515,"['establishment', 'point_of_interest', 'subway_station', 'transit_station']","6 Avenue(BDFM)","Lower Manhattan"
"424","SOUTH FERRY","1","SOUTH FERRY subway station Line 1, New York","South Ferry Station, New York, NY 10004, USA","South Ferry Station","None","None","10004","Manhattan","New York County","New York","United States",40.7020208,-74.0133728,"['establishment', 'point_of_interest', 'subway_station', 'transit_station']","7 Avenue(123)","Lower Manhattan"
"425","SPRING ST","6","SPRING ST subway station Line 6, New York","Spring Street, New York, NY 10012, USA","Spring Street","None","None","10012","Manhattan","New York County","New York","United States",40.722301,-73.997139,"['establishment', 'point_of_interest', 'subway_station', 'transit_station']","Lexington Av(456)","Lower Manhattan"
"426","SPRING ST","CE","SPRING ST subway station Line CE, New York","207-219 Spring St, New York, NY 10012, USA","None","207-219","Spring Street","10012","Manhattan","New York County","New York","United States",40.7255492,-74.0037261,"['establishment', 'point_of_interest']","8 Avenue(ACE)","Lower Manhattan"
"427","ST LAWRENCE AV","6","ST LAWRENCE AV subway station Line 6, New York","St Lawrence Av, Bronx, NY 10472, USA","St Lawrence Av","None","None","10472","Bronx","Bronx County","New York","United States",40.8315326,-73.8672593,"['establishment', 'point_of_interest', 'subway_station', 'transit_station']","Lexington Av(456)","Bronx"
"428","ST. GEORGE","1","ST. GEORGE subway station Line 1, New York","181 Street Station, New York, NY 10033, USA","181 Street Station","None","None","10033","Manhattan","New York County","New York","United States",40.84913,-73.9337289,"['establishment', 'point_of_interest', 'subway_station', 'transit_station']","7 Avenue(123)","Upper Manhattan"
"429","STEINWAY ST","MR","STEINWAY ST subway station Line MR, New York","Steinway St, 3093 32nd St, Queens, NY 11103, USA","Steinway St","3093","32nd Street","11103","Queens","Queens County","New York","United States",40.7567049,-73.9206646,"['establishment', 'point_of_interest', 'subway_station', 'transit_station']","6 Avenue(BDFM)","Middle Manhattan"
"430","STERLING ST","25","STERLING ST subway station Line 25, New York","Sterling St, Brooklyn, NY 11225, USA","Sterling St","None","None","11225","Brooklyn","Kings County","New York","United States",40.6632908,-73.951044,"['establishment', 'point_of_interest', 'subway_station', 'transit_station']","7 Avenue(123)","Queen-Brooklyn"
"431","SUTPHIN-ARCHER","EJZ","SUTPHIN-ARCHER subway station Line EJZ, New York","Sutphin Blvd - Archer Av - JFK Airport, Queens, NY 11435, USA","Sutphin Blvd - Archer Av - JFK Airport","None","None","11435","Queens","Queens County","New York","United States",40.700822,-73.8079243,"['establishment', 'point_of_interest', 'subway_station', 'transit_station']","8 Avenue(ACE)","Queen"
"432","SUTPHIN BLVD","F","SUTPHIN BLVD subway station Line F, New York","Sutphin Blvd, Queens, NY 11435, USA","Sutphin Blvd","None","None","11435","Queens","Queens County","New York","United States",40.7055522,-73.8097197,"['establishment', 'point_of_interest', 'subway_station', 'transit_station']","6 Avenue(BDFM)","Queen"
"433","SUTTER AV","L","SUTTER AV subway station Line L, New York","Sutter Av, Brooklyn, NY 11207, USA","Sutter Av","None","None","11207","Brooklyn","Kings County","New York","United States",40.6693045,-73.9019022,"['establishment', 'point_of_interest', 'subway_station', 'transit_station']","14 St-Canarsie(L)","Queen-Brooklyn"
"434","SUTTER AV-RUTLD","3","SUTTER AV-RUTLD subway station Line 3, New York","Sutter Av - Rutland Rd, Rutland Road & E 98th St, Brooklyn, NY 11212, USA","Sutter Av - Rutland Rd","None","None","11212","Brooklyn","Kings County","New York","United States",40.6649921,-73.9229085,"['establishment', 'point_of_interest', 'subway_station', 'transit_station']","7 Avenue(123)","Queen-Brooklyn"
"435","THIRTY ST","1","THIRTY ST subway station Line 1, New York","1 Av, E 14 St, Avenue A, New York, NY 10009, USA","1 Av","None","Avenue A","10009","Manhattan","New York County","New York","United States",40.7313271,-73.9824354,"['establishment', 'point_of_interest', 'subway_station', 'transit_station']","7 Avenue(123)","Lower Manhattan"
"436","THIRTY THIRD ST","1","THIRTY THIRD ST subway station Line 1, New York","33 St, 2 Park Ave, New York, NY 10016, USA","33 St","2","Park Avenue","10016","Manhattan","New York County","New York","United States",40.7461711,-73.9819916,"['establishment', 'point_of_interest', 'subway_station', 'transit_station']","7 Avenue(123)","Lower Manhattan"
"437","TIMES SQ-42 ST","1237NQRSW","TIMES SQ-42 ST subway station Line 1237NQRSW, New York","Times Sq - 42 St, New York, NY 10018, USA","Times Sq - 42 St","None","None","10018","Manhattan","New York County","New York","United States",40.7558611,-73.987061,"['establishment', 'point_of_interest', 'subway_station', 'transit_station']","Broadway(NQRW)","Middle Manhattan"
"438","TOMPKINSVILLE","1","TOMPKINSVILLE subway station Line 1, New York","Tompkinsville, Staten Island, NY 10304, USA","Tompkinsville","None","None","10304","Staten Island","Richmond County","New York","United States",40.6376266,-74.0750289,"['establishment', 'point_of_interest', 'train_station', 'transit_station']","7 Avenue(123)","Brooklyn"
"439","TREMONT AV","BD","TREMONT AV subway station Line BD, New York","Tremont Av, Bronx, NY 10453, USA","Tremont Av","None","None","10453","Bronx","Bronx County","New York","United States",40.8503537,-73.9052912,"['establishment', 'point_of_interest', 'subway_station', 'transit_station']","6 Avenue(BDFM)","Upper Manhattan"
"440","TWENTY THIRD ST","1","TWENTY THIRD ST subway station Line 1, New York","23 St, E 23rd St, New York, NY 10010, USA","23 St","None","East 23rd Street","10010","Manhattan","New York County","New York","United States",40.7412012,-73.9890337,"['establishment', 'point_of_interest', 'subway_station', 'transit_station']","7 Avenue(123)","Lower Manhattan"
"441","UNION ST","R","UNION ST subway station Line R, New York","Union St, Union St, Brooklyn, NY 11215, USA","Union St","None","Union Street","11215","Brooklyn","Kings County","New York","United States",40.6771724,-73.9832467,"['establishment', 'point_of_interest', 'subway_station', 'transit_station']","Broadway(NQRW)","Lower Manhattan"
"442","UTICA AV","AC","UTICA AV subway station Line AC, New York","Utica Av, Fulton St, Brooklyn, NY 11233, USA","Utica Av","None","Fulton Street","11233","Brooklyn","Kings County","New York","United States",40.6793738,-73.9306335,"['establishment', 'point_of_interest', 'subway_station', 'transit_station']","8 Avenue(ACE)","Queen-Brooklyn"
"443","V.CORTLANDT PK","1","V.CORTLANDT PK subway station Line 1, New York","Van Cortlandt Park - 242 St, Bronx, NY 10471, USA","Van Cortlandt Park - 242 St","None","None","10471","Bronx","Bronx County","New York","United States",40.8899597,-73.8982401,"['establishment', 'point_of_interest', 'transit_station']","7 Avenue(123)","Bronx"
"444","VAN SICLEN AV","3","VAN SICLEN AV subway station Line 3, New York","Van Siclen Av, Brooklyn, NY 11207, USA","Van Siclen Av","None","None","11207","Brooklyn","Kings County","New York","United States",40.6654424,-73.8891273,"['establishment', 'point_of_interest', 'subway_station', 'transit_station']","7 Avenue(123)","Queen-Brooklyn"
"445","VAN SICLEN AV","JZ","VAN SICLEN AV subway station Line JZ, New York","Van Siclen Av, Brooklyn, NY 11207, USA","Van Siclen Av","None","None","11207","Brooklyn","Kings County","New York","United States",40.6780358,-73.8917247,"['establishment', 'point_of_interest', 'subway_station', 'transit_station']","8 Avenue(ACE)","Queen-Brooklyn"
"446","VAN SICLEN AVE","C","VAN SICLEN AVE subway station Line C, New York","Van Siclen Av, Brooklyn, NY 11207, USA","Van Siclen Av","None","None","11207","Brooklyn","Kings County","New York","United States",40.6727422,-73.8903155,"['establishment', 'point_of_interest', 'subway_station', 'transit_station']","8 Avenue(ACE)","Queen-Brooklyn"
"447","VERNON-JACKSON","7","VERNON-JACKSON subway station Line 7, New York","Vernon Boulevard-Jackson Avenue Station, Queens, NY 11101, USA","Vernon Boulevard-Jackson Avenue Station","None","None","11101","Queens","Queens County","New York","United States",40.7426713,-73.9537248,"['establishment', 'point_of_interest', 'subway_station', 'transit_station']","Flushing(7)","Middle Manhattan"
"448","W 4 ST-WASH SQ","ABCDEFM","W 4 ST-WASH SQ subway station Line ABCDEFM, New York","W 4 St - Wash Sq, 340 6th Ave, New York, NY 10011, USA","W 4 St - Wash Sq","340","6th Avenue","10011","Manhattan","New York County","New York","United States",40.7311137,-74.0012233,"['establishment', 'point_of_interest', 'subway_station', 'transit_station']","6 Avenue(BDFM)","Lower Manhattan"
"449","W 8 ST-AQUARIUM","FQ","W 8 ST-AQUARIUM subway station Line FQ, New York","West 8 Street-New York Aquarium, Brooklyn, NY 11224, USA","West 8 Street-New York Aquarium","None","None","11224","Brooklyn","Kings County","New York","United States",40.5761021,-73.9759296,"['establishment', 'point_of_interest', 'subway_station', 'transit_station']","6 Avenue(BDFM)","Brooklyn"
"450","WAKEFIELD/241","2","WAKEFIELD/241 subway station Line 2, New York","241 Street, Bronx, NY 10470, USA","241 Street","None","None","10470","Bronx","Bronx County","New York","United States",40.9035209,-73.8504209,"['establishment', 'point_of_interest', 'subway_station', 'transit_station']","7 Avenue(123)","Bronx"
"451","WALL ST","23","WALL ST subway station Line 23, New York","Wall Street Station, New York, NY 10006, USA","Wall Street Station","None","None","10006","Manhattan","New York County","New York","United States",40.7076492,-74.0117507,"['establishment', 'point_of_interest', 'subway_station', 'transit_station']","7 Avenue(123)","Lower Manhattan"
"452","WALL ST","45","WALL ST subway station Line 45, New York","Wall Street Station, New York, NY 10006, USA","Wall Street Station","None","None","10006","Manhattan","New York County","New York","United States",40.7076492,-74.0117507,"['establishment', 'point_of_interest', 'subway_station', 'transit_station']","Lexington Av(456)","Lower Manhattan"
"453","WEST FARMS SQ","25","WEST FARMS SQ subway station Line 25, New York","West Farms Sq - E Tremont Av, Bronx, NY 10460, USA","West Farms Sq - E Tremont Av","None","None","10460","Bronx","Bronx County","New York","United States",40.8405859,-73.8796649,"['establishment', 'point_of_interest', 'subway_station', 'transit_station']","7 Avenue(123)","Bronx"
"454","WESTCHESTER SQ","6","WESTCHESTER SQ subway station Line 6, New York","Westchester Sq-E Tremont Av, Bronx, NY 10461, USA","Westchester Sq-E Tremont Av","None","None","10461","Bronx","Bronx County","New York","United States",40.8401247,-73.8428258,"['establishment', 'point_of_interest', 'subway_station', 'transit_station']","Lexington Av(456)","Bronx"
"455","WHITEHALL S-FRY","RW","WHITEHALL S-FRY subway station Line RW, New York","Whitehall St, South St, Whitehall St, New York, NY 10004, USA","Whitehall St","None","Whitehall Street","10004","Manhattan","New York County","New York","United States",40.7017398,-74.0129544,"['establishment', 'point_of_interest', 'subway_station', 'transit_station']","Broadway(NQRW)","Lower Manhattan"
"456","WHITLOCK AV","6","WHITLOCK AV subway station Line 6, New York","Whitlock Avenue, Bronx, NY 10459, USA","Whitlock Avenue","None","None","10459","Bronx","Bronx County","New York","United States",40.8267442,-73.8863456,"['establishment', 'point_of_interest', 'subway_station', 'transit_station']","Lexington Av(456)","Upper Manhattan"
"457","WILSON AV","L","WILSON AV subway station Line L, New York","Wilson Avenue Station, Brooklyn, NY 11207, USA","Wilson Avenue Station","None","None","11207","Brooklyn","Kings County","New York","United States",40.6887823,-73.9046724,"['establishment', 'point_of_interest', 'subway_station', 'transit_station']","14 St-Canarsie(L)","Queen-Brooklyn"
"458","WINTHROP ST","25","WINTHROP ST subway station Line 25, New York","Winthrop St, Brooklyn, NY 11225, USA","Winthrop St","None","None","11225","Brooklyn","Kings County","New York","United States",40.6571773,-73.9500546,"['establishment', 'point_of_interest', 'subway_station', 'transit_station']","7 Avenue(123)","Queen-Brooklyn"
"459","WOODHAVEN BLVD","JZ","WOODHAVEN BLVD subway station Line JZ, New York","Woodhaven Blvd, Queens, NY 11421, USA","Woodhaven Blvd","None","None","11421","Queens","Queens County","New York","United States",40.6939097,-73.8513927,"['establishment', 'point_of_interest', 'subway_station', 'transit_station']","8 Avenue(ACE)","Queen"
"460","WOODHAVEN BLVD","MR","WOODHAVEN BLVD subway station Line MR, New York","Woodhaven Blvd, Queens, NY 11373, USA","Woodhaven Blvd","None","None","11373","Queens","Queens County","New York","United States",40.7333681,-73.8704231,"['establishment', 'point_of_interest', 'subway_station', 'transit_station']","6 Avenue(BDFM)","Queen"
"461","WOODLAWN","4","WOODLAWN subway station Line 4, New York","Woodlawn, Bronx, NY 10467, USA","Woodlawn","None","None","10467","Bronx","Bronx County","New York","United States",40.8868865,-73.8781032,"['establishment', 'point_of_interest', 'subway_station', 'transit_station']","Lexington Av(456)","Bronx"
"462","WORLD TRADE CTR","E","WORLD TRADE CTR subway station Line E, New York","World Trade Center, New York, NY 10007, USA","World Trade Center","None","None","10007","Manhattan","New York County","New York","United States",40.7126452,-74.009898,"['establishment', 'point_of_interest', 'subway_station', 'transit_station']","8 Avenue(ACE)","Lower Manhattan"
"463","WTC-CORTLANDT","1","WTC-CORTLANDT subway station Line 1, New York","WTC Cortlandt, New York, NY 10006, USA","WTC Cortlandt","None","None","10006","Manhattan","New York County","New York","United States",40.7117347,-74.0121198,"['establishment', 'point_of_interest', 'subway_station', 'transit_station']","7 Avenue(123)","Lower Manhattan"
"464","YORK ST","F","YORK ST subway station Line F, New York","York St, York Street &, Jay St, Brooklyn, NY 11201, USA","York St","None","Jay Street","11201","Brooklyn","Kings County","New York","United States",40.7013482,-73.9866001,"['establishment', 'point_of_interest', 'subway_station', 'transit_station']","6 Avenue(BDFM)","Lower Manhattan"
"465","ZEREGA AV","6","ZEREGA AV subway station Line 6, New York","Zerega Av, Bronx, NY 10461, USA","Zerega Av","None","None","10461","Bronx","Bronx County","New York","United States",40.8368105,-73.8466696,"['establishment', 'point_of_interest', 'subway_station', 'transit_station']","Lexington Av(456)","Bronx"
